"","city","type","full_name","specialization","number_teachers","number_places","number_free_places","address","phone","site","email","lon","lat","coord"
"1","Одеса","ЗНЗ","Одеський економічний ліцей Одеської міської ради Одеської області","спеціалізований заклад","28",272,"40","65059 , вул. Люстдорфська дорога, 33","67-99-55","http://www.krvo.od.ua/school/licec/",NA,-91.8903882,38.7006493,"38.7006493:-91.8903882"
"2","Одеса","ЗНЗ","Одеська загальноосвітня школа №27 І-ІІІ ступенів Одеської міської ради Одеської області","загальноосвітній заклад","79",1119,"0","65059, вул. Люстдорфська дорога, 33","766-61-34","http://www.krvo.od.ua/school/s27/",NA,-91.8903882,38.7006493,"38.7006493:-91.8903882"
"3","Одеса","ЗНЗ","Одеська загальноосвітня школа №28 І-ІІІ ступенів Одеської міської ради Одеської області","загальноосвітній заклад","46",754,"5","65080, вул. Ак. Філатова,13-в","766-20-71","http://www.krvo.od.ua/school/s28/",NA,30.722102,46.431459,"46.431459:30.722102"
"4","Одеса","ЗНЗ","Одеська загальноосвітня школа №33 І-ІІІ ступенів Одеської міської ради Одеської області","загальноосвітній заклад","42",562,"50","65043, вул. Комарова, 8","765-36-33","http://www.krvo.od.ua/school/s33/",NA,30.3989485,50.3627561,"50.3627561:30.3989485"
"5","Одеса","ЗНЗ","Одеська загальноосвітня школа №51 І-ІІІ ступенів Одеської міської ради Одеської області","загальноосвітній заклад","45",523,"30","65080, вул. Люстдорфська дорога, 60","766-64-11","http://www.krvo.od.ua/school/s51/",NA,-91.9685826,38.657452,"38.657452:-91.9685826"
"6","Одеса","ЗНЗ","Одеська загальноосвітня школа І-ІІІ ступенів №55 Одеської міської ради Одеської області","загальноосвітній заклад","80",1200,"0","65104, вул. Ільфа і Петрова, 25","744-43-41","http://www.krvo.od.ua/school/s55/",NA,-92.15,38.5,"38.5:-92.15"
"7","Одеса","ЗНЗ","Одеська загальноосвітня школа №63 І-ІІІ ступенів Одеської міської ради Одеської","загальноосвітній заклад","64",1106,"0","65101, вул. Академіка Корольова, 12","744-53-09","http://www.krvo.od.ua/school/s63/",NA,35.194557,48.495187,"48.495187:35.194557"
"8","Одеса","ЗНЗ","Одеська загальноосвітня школа №65 І-ІІІ ступенів Одеської міської ради Одеської","загальноосвітній заклад","63",930,"0","65089, вул. Академіка Корольова, 90","744-42-73","http://www.krvo.od.ua/school/s65/",NA,30.719923,46.393487,"46.393487:30.719923"
"9","Одеса","ЗНЗ","Одеська загальноосвітня школа №72 І-ІІІ ступенів Одеської міської ради Одеської","загальноосвітній заклад","112",1560,"0","65114, вул. Ільфа і Петрова, 15- А","744-41-61","http://www.krvo.od.ua/school/s72/",NA,NA,NA,"NA:NA"
"10","Одеса","ЗНЗ","Одеська загальноосвітня школа № 78 І-ІІІ ступенів Одеської міської ради Одеської області","загальноосвітній заклад","46",723,"82","65113, вул. Люстдорфська дорога, 152","744-70-22","http://www.krvo.od.ua/school/s78/",NA,NA,NA,"NA:NA"
"11","Одеса","ЗНЗ","Одеська загальноосвітня школа № 80 І-ІІІ ступенів Одеської міської ради Одеської області","загальноосвітній заклад","55",877,"15","65114, вул. Ільфа і Петрова, 13/1","744-55-31","http://www.krvo.od.ua/school/s80/",NA,NA,NA,"NA:NA"
"12","Одеса","ЗНЗ","Одеська загальноосвітня школа № 81 І-ІІІ ступенів Одеської міської ради Одеської області","загальноосвітній заклад","76",1303,"0","65016, вул. Фонтанська дорога, 26","63-43-28","http://www.krvo.od.ua/school/s81/",NA,-91.8903882,38.5748317,"38.5748317:-91.8903882"
"13","Одеса","ЗНЗ","Одеська загальноосвітня школа №82 І – ІІІ ступенів Одеської міської ради Одеської області","загальноосвітній заклад","59",1089,"0","65121, , проспект Маршала Жукова, 12”а”","761-96-46","http://www.krvo.od.ua/school/s82/",NA,30.706851,46.409829,"46.409829:30.706851"
"14","Одеса","ЗНЗ","Одеська загальноосвітня школа № 85 І – ІІІ ступенів Одеської міської ради Одеської області","загальноосвітній заклад","42",656,"70","65037, проспект Свободи, 91","36-05-21","http://www.krvo.od.ua/school/s85/",NA,24.0256529,49.8441465,"49.8441465:24.0256529"
"15","Одеса","ЗНЗ","Одеська загальноосвітня школа №89 І-ІІІ ступенів Одеської міської ради Одеської області","загальноосвітній заклад","63",1006,"34","65122, вул. Ільфа і Петрова, 45","749-42-01","http://www.krvo.od.ua/school/s89/",NA,NA,NA,"NA:NA"
"16","Одеса","ЗНЗ","Одеська загальноосвітня школа №106 І – ІІІ ступенів Одеської міської ради Одеської області","загальноосвітній заклад","58",724,"25","65038, провулок Дачний, 1","744-65-35","http://www.krvo.od.ua/school/s106/",NA,30.747705,46.398536,"46.398536:30.747705"
"17","Одеса","ЗНЗ","Одеська гімназія №9 Одеської міської ради Одеської області","спеціалізований заклад","62",819,"23","65113, проспект Ак. Глушка, 1-Г","747-32-00","http://www.krvo.od.ua/school/gim9/",NA,30.7299373,46.3979867,"46.3979867:30.7299373"
"18","Одеса","ЗНЗ","Одеська спеціалізована школа № 86 І-ІІІ ступенів з поглибленним вивченням англійської мови Одеської міської ради одеської області","спеціалізований заклад","83",1224,"46","65089, вул. Академіка Вільямса, 79","746-73-64","http://www.krvo.od.ua/school/s86/",NA,30.718263,46.388359,"46.388359:30.718263"
"19","Одеса","ЗНЗ","Одеський навчално-виховний комплекс «Гармонія» «Загальноосвітня школа І-ІІ ступенів гімназія №6» Одеської міської ради Одеської області","спеціалізований заклад","76",1901,"21","65088, вул. Олександра Невського, 43/2 „а”","45-85-97","http://www.krvo.od.ua/school/gim6/",NA,30.732887,46.411408,"46.411408:30.732887"
"20","Одеса","ЗНЗ","Одеський навчально-виховний комплекс № 84 «Спеціалізована школа І – ІІІ ступенів з поглибленим вивченням іноземних мов – загальноосвітня школа І – ІІІ ступенів» Одеської міської ради Одеської області","спеціалізований заклад","103",1567,"6","65015, проспект Академіка Глушка, 1/6","747-67-78","http://www.krvo.od.ua/school/s84/",NA,30.7291175,46.4006515,"46.4006515:30.7291175"
"21","Одеса","ЗНЗ","Одеський навчально-виховний комплекс №263 „Спеціалізована школа І ступеня з поглибленим вивченням англійської мови - дошкільний заклад” Одеської міської ради Одеської області","спеціалізований заклад","49",447,"0","65113, вул. Ак.Вільямса, 54","45-23-29","http://www.krvo.od.ua/school/s263",NA,NA,NA,"NA:NA"
"22","Одеса","ЗНЗ","Одеський навчально-виховний комплекс № 310 «Дошкільний навчальний заклад (ясла-сад) комбінованого типу. спеціальна школа І ступеня» Одеської міської ради","спеціалізований заклад","58",77,"0","65089, вул. Ак.Вільямса,85","746-72-13","http://www.krvo.od.ua/school/s310",NA,NA,NA,"NA:NA"
"23","Одеса","ЗНЗ","Одеський навчально-виховний комплекс «Надія» загальноосвітня школа І-ІІІ ступенів","спеціалізований заклад","69",707,"0","65122, вул. Архітекторська, 20/2","749-36-44","http://www.krvo.od.ua/school/nadija/",NA,30.716905,46.385181,"46.385181:30.716905"
"24","Одеса","ЗНЗ","Одеська вечірня загальноосвітня школа № 24 ІІ-ІІІ ступенів Одеської міської ради Одеської області","загальноосвітній заклад","9",180,"56","65043, вул. Комарова, 8","050-521-57-65",NA,"odessateacher@gmail.com",30.3989485,50.3627561,"50.3627561:30.3989485"
"25","Одеса","ЗНЗ","Одеська загальноосвітня школа № 1 І-ІІІ ступенів Одеської міської ради Одеської області","загальноосвітній заклад","60",1171,"76","65005 пл. Михайлівська, 10","721-42-08","http://mrvo.od.ua/school/s1/",NA,30.7506884,46.4821178,"46.4821178:30.7506884"
"26","Одеса","ЗНЗ","Одеська вечірня (змінна) загальноосвітня школа № 3 ІІ-ІІІ ступенів Одеської міської ради Одеської області","загальноосвітній заклад","17",289,NA,"65028 вул.Б.Хмельницького,92","732-27-46","http://mrvo.od.ua/school/s3/",NA,24.8778847,48.8696965,"48.8696965:24.8778847"
"27","Одеса","ЗНЗ","Одеський навчально-виховний комплекс № 4 «Загальноосвітня школа І –ІІІ ступенів – гімназія» Одеської міської ради Одеської області","спеціалізований заклад","43",782,"19","65010 Адміральський пр-т, 32","36-41-52",NA,"scolan@mail.ru",30.731929,46.437736,"46.437736:30.731929"
"28","Одеса","ЗНЗ","Одеська гімназія № 4 Одеської міської ради Одеської області","спеціалізований заклад","46",555,"52","65028, вул. Болгарська, 88","731-82-58",NA,"odgimnasia4@gmail.com",30.716256,46.461515,"46.461515:30.716256"
"29","Одеса","ЗНЗ","Одеська гімназія № 5 Одеської міської ради Одеської області","спеціалізований заклад","57",806,"23","65059 вул. Малиновського, 29","64-12-31",NA,"gymnasium52005@yandex.ru",34.363281,47.574981,"47.574981:34.363281"
"30","Одеса","ЗНЗ","Одеська гімназія № 8 Одеської міської ради Одеської області","спеціалізований заклад","56",736,"14","65076, вул. Іцхака Рабіна, 8","762-39-62",NA,"otrada2007@rambler.ru",30.700382,46.440057,"46.440057:30.700382"
"31","Одеса","ЗНЗ","Одеська загальноосвітня школа № 8 І –ІІІ ступенів Одеської міської ради Одеської області","загальноосвітній заклад","65",1266,"74","65017, вул. Бреуса, 59","67-88-04",NA,"schoolnum8@gmail.com",-92.4801989,38.0582333,"38.0582333:-92.4801989"
"32","Одеса","ЗНЗ","Одеська загальноосвітня школа № 18 І–ІІІ ступенів Одеської міської ради Одеської області","загальноосвітній заклад","36",530,"72","65005, вул. Прохоровська, 46","721-67-06",NA,"odessa.shkola18@yandex.ru",NA,NA,"NA:NA"
"33","Одеса","ЗНЗ","Одеська загальноосвітня школа № 19 І–ІІІ ступенів Одеської міської ради Одеської області","загальноосвітній заклад","30",416,"78","65005 вул.Кустанайська, 3","721-20-31",NA,"GSchool19@list.ru",NA,NA,"NA:NA"
"34","Одеса","ЗНЗ","Одеська загальноосвітня школа № 20 І–ІІІ ступенів Одеської міської ради Одеської області","загальноосвітній заклад","42",721,"29","65074 вул.Терешкової, 48","762-10-92",NA,"vlasova@icn.od.ua",32.242717,48.51788,"48.51788:32.242717"
"35","Одеса","ЗНЗ","Одеська загальноосвітня школа № 25 І–ІІІ ступенів Одеської міської ради Одеської області","загальноосвітній заклад","50",680,"16","65080, вул. Академіка Філатова, 23-Б","766-30-06",NA,"director25@bk.ru",30.716462,46.434579,"46.434579:30.716462"
"36","Одеса","ЗНЗ","Одеська загальноосвітня школа № 31 І-ІІІ ступенів Одеської міської ради Одеської області","загальноосвітній заклад","44",816,"34","65036, вул. Гастелло, 90-А","761-61-75",NA,"ozosh@icn.od.ua",33.4049285,46.7567983,"46.7567983:33.4049285"
"37","Одеса","ЗНЗ","Одеська спеціалізована школа № 32 І–ІІІ ступенів Одеської міської ради Одеської області","загальноосвітній заклад","34",413,"32","65070, вул. Космонавтів, 60","765-48-28",NA,"sckola32d@gmail.com",32.040426,46.938413,"46.938413:32.040426"
"38","Одеса","ЗНЗ","Одеська загальноосвітня школа № 45 І–ІІІ ступенів Одеської міської ради Одеської області","загальноосвітній заклад","44",755,"56","65085, вул. Літакова, 5","727-96-92",NA,"Odessa.school45@yandex.ru",35.1982544,47.789039,"47.789039:35.1982544"
"39","Одеса","ЗНЗ","Одеська загальноосвітня школа № 46 І –ІІІ ступенів з професійним навчанням Одеської міської ради Одеської області","загальноосвітній заклад","29",495,"67","65070, вул. Космонавтів, 70","766-45-62",NA,"shkola-46@te.net.ua",32.051581,46.94161,"46.94161:32.051581"
"40","Одеса","ЗНЗ","Одеський навчально-виховний комплекс №53 «Загальноосвітня школа І-ІІІ ступенів - ліцей» Одеської міської ради Одеської області","спеціалізований заклад","50",868,"32","65072, вул. Генерала Петрова, 34","762-62-53",NA,"licey_53@mail.ru",30.70309,46.434329,"46.434329:30.70309"
"41","Одеса","ЗНЗ","Одеська спеціалізована школа № 53 І ступеня з поглибленим вивченням англійської мови Одеської міської ради Одеської області","спеціалізований заклад","27",340,"16","65078, вул. Валентини Терешкової, 35-Б","761-35-65",NA,"zosh53@mail.ru",32.246524,48.514896,"48.514896:32.246524"
"42","Одеса","ЗНЗ","Одеська спеціалізована школа № 54 І ступеня з поглибленим вивченням англійської мови Одеської міської ради Одеської області","спеціалізований заклад","29",508,"0","65076, вул. Генерала Петрова, 58-А","762-74-39",NA,"shkola_54@ukr.net",30.698072,46.439247,"46.439247:30.698072"
"43","Одеса","ЗНЗ","Одеська загальноосвітня школа № 60 І–ІІІ ступенів Одеської міської ради Одеської області","загальноосвітній заклад","38",625,"75","65091, вул. Комітетська, 5","732-73-42",NA,"60-s@mail.ru",28.4880337,49.2114441,"49.2114441:28.4880337"
"44","Одеса","ЗНЗ","Одеська спеціалізована школа № 64 І ступеня з поглибленим вивченням англійської мови Одеської міської ради Одеської області","спеціалізований заклад","30",449,NA,"65059, вул. Малиновського, 23","64-96-67",NA,"Primary_school64@mail.ru",38.4383887,48.9148145,"48.9148145:38.4383887"
"45","Одеса","ЗНЗ","Одеська спеціалізована школа № 69 І-ІІІ ступенів з поглибленим вивченням англійської мови Одеської міської ради Одеської області","спеціалізований заклад","61",908,"19","65072, вул. Іцхака Рабіна, 45","49-24-86",NA,"shkool69@te.net.ua",30.698845,46.431423,"46.431423:30.698845"
"46","Одеса","ЗНЗ","Одеська загальноосвітня школа № 95 І ступеня Одеської міської ради Одеської області","загальноосвітній заклад","26",391,"18","65033, вул. Туристська, 29-а","749-50-45",NA,"shkola.95@i.ua",NA,NA,"NA:NA"
"47","Одеса","ЗНЗ","Одеська спеціалізована школа № 96 І ступеня з поглибленим вивченням англійської мови Одеської міської ради Одеської області","спеціалізований заклад","33",331,"43","65078, м. Одеса, вул. Гайдара, 29-А","761-22-87",NA,"Odessa.shkola96@yandex.ua",30.7044445,46.4277814,"46.4277814:30.7044445"
"48","Одеса","ЗНЗ","Одеська спеціалізована школа № 99 І ступеня з поглибленим вивченням англійської мови Одеської міської ради Одеської області","спеціалізований заклад","19",295,NA,"65007, вул. Старопортофранківська, 40/42","722-17-03",NA,"School99od@e-mail.com",30.7278835,46.4708875,"46.4708875:30.7278835"
"49","Одеса","ЗНЗ","Одеська загальноосвітня школа № 100 І–ІІІ ступенів Одеської міської ради Одеської області","загальноосвітній заклад","50",670,"29","65065, вул. Варненська, 12","765-55-24",NA,"shkool_100@ukr.net",-92.6685736,38.1280947,"38.1280947:-92.6685736"
"50","Одеса","ЗНЗ","Одеська загальноосвітня школа № 103 І –ІІІ ступенів Одеської міської ради Одеської області","загальноосвітній заклад","39",645,"59","65028, вул. Болгарська, 31","731-80-11",NA,"na6a6kola103@ukr.net",35.3393661,46.8230593,"46.8230593:35.3393661"
"51","Одеса","ЗНЗ","Одеська загальноосвітня школа № 110 І –ІІІ ступенів Одеської міської ради Одеської області","загальноосвітній заклад","27",409,"71","65033, вул. Василя Стуса, 10","732-62-93",NA,"shkool_110@mail.ru",23.5197115,49.2779092,"49.2779092:23.5197115"
"52","Одеса","ЗНЗ","Одеська загальноосвітня школа № 120 І –ІІІ ступенів Одеської міської ради Одеської області","загальноосвітній заклад","26",441,"94","65005, вул. Дальницька, 58","731-62-85",NA,"sastava120@mail.ru",NA,NA,"NA:NA"
"53","Одеса","ЗНЗ","Одеська загальноосвітня школа № 130 І –ІІІ ступенів Одеської міської ради Одеської області","загальноосвітній заклад","60",1186,"42","65085, вул. Обнорського, 56","740-28-45",NA,"Slobodyanyuk_59@mail.ru",-92.0959429,38.3926951,"38.3926951:-92.0959429"
"54","Одеса","ЗНЗ","Одеський ліцей “Приморський Одеської міської ради Одеської області","спеціалізований заклад","45",407,"90","65039, проспект Гагаріна, 14","776-13-75",NA,"liceumprimorsky@te.net.ua",35.05764,48.449117,"48.449117:35.05764"
"55","Одеса","ЗНЗ","Одеський юридичний ліцей Одеської міської ради Одеської області","спеціалізований заклад","37",267,"233","65011, вул. Катерининська, 64","722-60-49",NA,"school_yur@soborka.net",-92.7182728,38.3904827,"38.3904827:-92.7182728"
"56","Одеса","ЗНЗ","Одеська Маріїнська гімназія Одеської міської ради Одеської області","спеціалізований заклад","43",553,"0","65045, вул. Л.Толстого,9","726-59-79",NA,"margodessa@gmail.cоm",34.4455921,48.5410575,"48.5410575:34.4455921"
"57","Одеса","ЗНЗ","Одеська гімназія №1 імені А.П. Бистріної Одеської міської ради Одеської області","спеціалізований заклад","74",791,"105","65045, Олександрівський проспект, 11","722-70-00",NA,"Od.gymn1@gmail.com",30.735564,46.479217,"46.479217:30.735564"
"58","Одеса","ЗНЗ","Одеський навчально-виховний комплекс «Гімназія №2 – спеціалізована школа І ступеня з поглибленим вивченням англійської мови» Одеської міської ради Одеської області","спеціалізований заклад","87",1050,"0","65056, вул. Гаванна, 5","723-03-98",NA,"gymnasium_2@mail.ru",NA,NA,"NA:NA"
"59","Одеса","ЗНЗ","Одеський навчально-виховний комплекс №90 ім. О.С.Пушкіна “Спеціалізована школа І-ІІІ ступенів - дошкільний навчальний заклад” Одеської міської ради Одеської області","спеціалізований заклад","97",902,"0","65012, вул. Велика Арнаутська, 2б","722-10-22",NA,"Sc90@list.ru",30.7517248,46.4723116,"46.4723116:30.7517248"
"60","Одеса","ЗНЗ","Одеський навчально – виховний комплекс №300 „Спеціалізована школа І ступеня - дошкільний навчальний заклад” Одеської міської ради Одеської області","спеціалізований заклад","7",108,"0","65063, вул. Маршала Говорова, 5","63-84-14",NA,"Katalpa1@rambler.ru",30.746875,46.451692,"46.451692:30.746875"
"61","Одеса","ЗНЗ","Одеська спеціалізована школа № 10 І – ІІІ ступенів імені льотчиків-космонавтів Г.Т. Добровольського та Г.С. Шоніна Одеської міської ради Одеської області","спеціалізований заклад","71",783,"117","65020, вул.10 квітня, 22","726-76-80",NA,"franod10@ukr.post.ua",30.720526,46.478007,"46.478007:30.720526"
"62","Одеса","ЗНЗ","Одеська спеціалізована школа №21 І – ІІІ ступенів спортивного напряму Одеської міської ради Одеської області","спеціалізований заклад","30",243,"262","65091, Староконний провулок,9","721-67-31",NA,"school_21@mail.ru",NA,NA,"NA:NA"
"63","Одеса","ЗНЗ","Одеська спеціалізована школа № 35 І-ІІІ ступенів з поглибленим вивченням англійської мови Одеської міської ради Одеської області","спеціалізований заклад","83",1247,"0","65039, проспект Гагаріна, 3","725-84-84",NA,"School35Odessa@gmail.com",35.064308,48.453241,"48.453241:35.064308"
"64","Одеса","ЗНЗ","Одеська спеціалізована школа № 50 І- ІІІ ступенів з поглибленим вивченням іноземних мов Одеської міської ради Одеської області","спеціалізований заклад","49",564,"0","65023, вул. Кінна, 46","723-55-76",NA,"school_50@ukr.net",36.239757,49.97536,"49.97536:36.239757"
"65","Одеса","ЗНЗ","Одеська спеціалізована школа № 59 І-ІІІ ступенів олімпійського резерву Одеської міської ради Одеської області","спеціалізований заклад","36",287,"213","65039, вул. Канатна, 89","722-18-00",NA,"school59.od@gmail.com",-92.2827384,38.6936742,"38.6936742:-92.2827384"
"66","Одеса","ЗНЗ","Одеська спеціалізована школа І-ІІІ ступенів «Освітні ресурси та технологічний тренінг» №94 з поглибленим вивченням івриту та інформатики Одеської міської ради Одеської області","спеціалізований заклад","39",418,"52","65014, вул. Маразліївська, 60","725-49-76",NA,"school@ort.odessa.net",30.749246,46.474419,"46.474419:30.749246"
"67","Одеса","ЗНЗ","Одеська спеціалізована школа № 117 І-ІІІ ступенів Одеської міської ради Одеської області","спеціалізований заклад","81",1065,"0","65026, вул. Рішельєвська, 18","725-83-52",NA,"osh117@mail.ru",30.7400252,46.4805179,"46.4805179:30.7400252"
"68","Одеса","ЗНЗ","Одеська спеціалізована школа № 119 І ступеня з поглибленим вивченням англійської мови Одеської міської ради Одеської області","спеціалізований заклад","35",592,"8","65045, вул. Жуковського, 39","726-16-35",NA,"school119@ukr.net",30.734542,46.479514,"46.479514:30.734542"
"69","Одеса","ЗНЗ","Одеська спеціалізована школа № 121 І – ІІІ степенів з поглибленим вивченням іноземних мов Одеської міської ради Одеської області","спеціалізований заклад","51",619,"0","65045, вул. Л.Толстого,1","726-59-94",NA,"school121.odessa@gmail.com",34.4455921,48.5410575,"48.5410575:34.4455921"
"70","Одеса","ЗНЗ","Одеська загальноосвітня школа № 16 І-ІІІ ступенів Одеської міської ради Одеської області","загальноосвітній заклад","39",439,"61","65012, вул. Пироговська, 25","722-50-83",NA,"urchenko@icn.od.ua",NA,NA,"NA:NA"
"71","Одеса","ЗНЗ","Одеська загальноосвітня школа № 26 І – ІІІ ступенів Одеської міської ради Одеської області","загальноосвітній заклад","40",456,"0","65028, вул. Старопорто-франківська,32","726-49-81",NA,"odshkola26@gmail.com",30.72205,46.477786,"46.477786:30.72205"
"72","Одеса","ЗНЗ","Одеська загальноосвітня школа № 37 І – ІІІ ступенів Одеської міської ради Одеської області","загальноосвітній заклад","36",498,"0","65026, вул. Софіївська, 26","723-35-06",NA,"sch-theater37@mail.ru",30.73164,46.489649,"46.489649:30.73164"
"73","Одеса","ЗНЗ","Одеська загальноосвітня школа № 38 І – ІІІ ступенів Одеської міської ради Одеської області","загальноосвітній заклад","56",867,"0","65009, вул. Фонтанська дорога, 37","68-59-84",NA,"school38-od@ukr.net",NA,NA,"NA:NA"
"74","Одеса","ЗНЗ","Одеська загальноосвітня школа № 39 І-ІІІ ступенів Одеської міської ради Одеської області","загальноосвітній заклад","30",282,"200","65125, вул. Успенська, 20","722-11-01",NA,"Schkool39@ukr.net",29.5358795,47.757589,"47.757589:29.5358795"
"75","Одеса","ЗНЗ","Одеська загальноосвітня школа № 43 І-ІІІ ступенів Одеської міської ради Одеської області","загальноосвітній заклад","42",469,"81","65082, вул. Гоголя, 17","723-72-75",NA,"odshkola43@meta.ua",34.5291589,49.8328545,"49.8328545:34.5291589"
"76","Одеса","ЗНЗ","Одеська загальноосвітня школа № 47 І - ІІІ ступенів Одеської міської ради Одеської області","загальноосвітній заклад","22",309,"111","65021, вул. Л.Толстого, 8","49-68-48",NA,"school-47.odessa@ukr.net",34.4455921,48.5410575,"48.5410575:34.4455921"
"77","Одеса","ЗНЗ","Одеська загальноосвітня школа № 52 І –ІІІ ступенів Одеської міської ради Одеської області","загальноосвітній заклад","35",436,"0","65045, вул. Троїцька, 49/51","726-05-52",NA,"school52@list.ru",32.051601,46.965076,"46.965076:32.051601"
"78","Одеса","ЗНЗ","Одеська загальноосвітня школа № 56 І -ІІІ ступенів Одеської міської ради Одеської області","загальноосвітній заклад","69",1296,"0","65009, вул. Тіниста, 1","68-18-63",NA,"Odessa56school@mail.ru",34.259975,44.521546,"44.521546:34.259975"
"79","Одеса","ЗНЗ","Одеська загальноосвітня школа № 57 І -ІІІ ступенів імені Героя Радянського Союзу О.М.Орлікова Одеської міської ради Одеської області","загальноосвітній заклад","36",536,"64","65012, вул. Ямчитського, 7","725-34-20",NA,"ludmila86@te.net.ua",NA,NA,"NA:NA"
"80","Одеса","ЗНЗ","Одеська загальноосвітня школа № 58 І -ІІІ ступенів Одеської міської ради Одеської області","загальноосвітній заклад","31",400,"200","65020, вул. Тираспольська, 14","728-16-32",NA,"Odschool58@ukr.net",-92.7580701,38.0097583,"38.0097583:-92.7580701"
"81","Одеса","ЗНЗ","Одеська загальноосвітня школа № 62 І -ІІІ ступенів Одеської міської ради Одеської області","загальноосвітній заклад","71",1071,"129","65058, проспект Шевченка, 10","68-91-60",NA,"sjerj@i.ua",24.03083,49.837353,"49.837353:24.03083"
"82","Одеса","ЗНЗ","Одеська загальноосвітня школа № 68 І -ІІІ ступенів Одеської міської ради Одеської області","загальноосвітній заклад","35",578,"0","65011, вул. Успенська, 58","722-42-54",NA,"school68@inbox.ru",29.5437491,47.7586817,"47.7586817:29.5437491"
"83","Одеса","ЗНЗ","Одеська загальноосвітня школа № 77 І -ІІІ ступенів Одеської міської ради Одеської області","загальноосвітній заклад","31",535,"365","65036, вул. Транспортна, 12","776-18-72",NA,"Od_school77@mail.ru",29.9488505,50.0787857,"50.0787857:29.9488505"
"84","Одеса","ЗНЗ","Одеська загальноосвітня школа № 79 І -ІІІ ступенів Одеської міської ради Одеської області","загальноосвітній заклад","31",409,"263","65007, вул. Водопровідна, 13","722-42-43",NA,"schkola.79@yandex.ru",30.732447,46.462848,"46.462848:30.732447"
"85","Одеса","ЗНЗ","Одеська загальноосвітня школа № 101 І - ІІІ ступенів Одеської міської ради Одеської області","загальноосвітній заклад","54",712,"0","65012, вул. В. Арнаутська, 9","722-13-82",NA,"o.skola101@gmail.com",NA,NA,"NA:NA"
"86","Одеса","ЗНЗ","Одеська загальноосвітня школа № 105 І - ІІІ ступенів Одеської міської ради Одеської області","загальноосвітній заклад","30",355,"0","65026, вул. Пастера, 17","723-24-88",NA,"oskola105@mail.ru",-92.5990835,38.3089601,"38.3089601:-92.5990835"
"87","Одеса","ЗНЗ","Одеська загальноосвітня школа № 107 І - ІІІ ступенів Одеської міської ради Одеської області","загальноосвітній заклад","48",582,"0","65020, вул. Л.Толстого, 30","726-87-70",NA,"school-107-odessa@yandex.ru",34.4455921,48.5410575,"48.5410575:34.4455921"
"88","Одеса","ЗНЗ","Одеська загальноосвітня школа № 118 І - ІІІ ступенів Одеської міської ради Одеської області","загальноосвітній заклад","38",475,"25","65007, вул. Преображенська, 97","722-00-60",NA,"Angelkr@ukr.net",NA,NA,"NA:NA"
"89","Одеса","ЗНЗ","Одеська загальноосвітня школа № 122 І - ІІІ ступенів Одеської міської ради Одеської області .","загальноосвітній заклад","46",817,"0","65021, вул. Старопорто-франківська, 45","723-55-72",NA,"od_school_122@ukr.net",30.720336,46.486111,"46.486111:30.720336"
"90","Одеса","ЗНЗ","Одеська вечірня (змінна) загальноосвітня школа № 19 ІІ – ІІІ ступенів Одеської міської ради Одеської області","загальноосвітній заклад","37",139,"0","65125 вул. Троїцька, 28","722-87-71",NA,"school_19@soborka.net",32.048927,46.962295,"46.962295:32.048927"
"91","Одеса","ЗНЗ","Одеська вечірня (змінна) загальноосвітня школа № 25 ІІ – ІІІ ступенів Одеської міської ради Одеської області","загальноосвітній заклад","26",480,"0","65021, вул. Старопорто-франківська, 45","723-35-20",NA,"school_25@email.ua",30.720336,46.486111,"46.486111:30.720336"
"92","Одеса","ЗНЗ","Одеський навчально-виховний комплекс № 111 «Спеціалізована школа І-ІІІ ступенів-дошкільний навчальний заклад» Одеської міської ради Одеської області","спеціалізований заклад","95",1250,"0","65006, пл. Молоді, 17","720-07-20",NA,"nvk1_odessa@ukr.net",30.70526,46.490576,"46.490576:30.70526"
"93","Одеса","ЗНЗ","Одеська загальноосвітня школа № 5 І-ІІІ ступенів Одеської міської ради Одеської області","загальноосвітній заклад","54",859,"0","65110, вул. Балківська, 42/1","721-67-83",NA,"school-5@ukr.net",30.7165221,46.4947059,"46.4947059:30.7165221"
"94","Одеса","ЗНЗ","Одеський навчально-виховний комплекс ""Гімназія № 7-спеціалізована школа І ступеня з поглибленим вивченням англійської мови"" Одеської міської ради Одеської області","спеціалізований заклад","97",1434,"0","65086, вул. Ростовська, 4а","52-69-67",NA,"g7svmelnyk@ukr.net",NA,NA,"NA:NA"
"95","Одеса","ЗНЗ","Одеська загальноосвітня школа № 11 І-ІІІ ступенів Одеської міської ради Одеської області","загальноосвітній заклад","36",596,"0","65031, вул. Академіка Воробйова, 6","721-67-18",NA,"od_zosh11@meta.ua",30.695198,46.487909,"46.487909:30.695198"
"96","Одеса","ЗНЗ","Одеська загальноосвітня школа № 12 І-ІІІ ступенів Одеської міської ради Одеської області","загальноосвітній заклад","43",747,"0","65069, вул. Марсельська, 6","755-16-91",NA,"odessa_school_12@ukr.net",-91.6178011,38.7466095,"38.7466095:-91.6178011"
"97","Одеса","ЗНЗ","Одеський навчально-виховний комплекс № 13 ""Загальноосвітня школа І-ІІІ ступенів – гімназія"" Одеської міської ради Одеської області","спеціалізований заклад","104",1897,"0","65069, вул. Кримська, 62а","758-33-22",NA,"odessa.school13@gmail.com",30.7888359,46.5778525,"46.5778525:30.7888359"
"98","Одеса","ЗНЗ","Одеська загальноосвітня школа № 14 І-ІІІ ступенів Одеської міської ради Одеської області","загальноосвітній заклад","75",1315,"0","65086, вул. Кримська, 56а","755-39-14",NA,"os14od@breezein.net",30.7900011,46.5786941,"46.5786941:30.7900011"
"99","Одеса","ЗНЗ","Одеська загальноосвітня школа № 15 І-ІІІ ступенів Одеської міської ради Одеської області","загальноосвітній заклад","73",1150,"0","65025, вул. Кримська. 80а","716-68-22",NA,"nasha-shkola15@yandex.ua",30.7953376,46.5831408,"46.5831408:30.7953376"
"100","Одеса","ЗНЗ","Одеська спеціалізована школа № 17 І-ІІІ ступенів з поглибленим вивченням англійської мови Одеської міськоїради Одеської області","спеціалізований заклад","75",883,"0","65111, вул. Махачкалинська, 7","52-87-28",NA,"araarm@ukr.net",-92.109435,38.5487983,"38.5487983:-92.109435"
"101","Одеса","ЗНЗ","Одеська загальноосвітня школа № 22 І-ІІІ ступенів Одеської міської ради Одеської області","загальноосвітній заклад","77",1292,"0","65111, вул. Махачкалинська, 4","752-34-46",NA,"school22od@ukr.net",-92.109435,38.5487983,"38.5487983:-92.109435"
"102","Одеса","ЗНЗ","Одеська загальноосвітня школа № 23 І-ІІІ ступенів Одеської міської ради Одеської області","загальноосвітній заклад","50",741,"0","65102, вул. Миколаївська дорога, 283","756-56-62",NA,"school23.odessa@gmail.com",30.7555289,46.5512131,"46.5512131:30.7555289"
"103","Одеса","ЗНЗ","Одеський навчально-виховний комплекс ""Морський ліцей – загальноосвітня школа № 24 І-ІІІ ступенів"" Одеської міської ради Одеської області","спеціалізований заклад","63",921,"0","65025, вул. Ак. Заболотного, 38а","751-09-65",NA,"marine.liceum@gmail.com",30.7873929,46.581924,"46.581924:30.7873929"
"104","Одеса","ЗНЗ","Одеська загальноосвітня школа № 30 І-ІІІ ступенів Одеської міської ради Одеської області","загальноосвітній заклад","29",453,"0","65013, вул. Чорноморського козацтва, 175","778-64-39",NA,"school-30-odessa@ukr.net",30.7316,46.53085,"46.53085:30.7316"
"105","Одеса","ЗНЗ","Одеська спеціалізована школа № 40 І-ІІІ ступенів Одеської міської ради Одеської області","спеціалізований заклад","84",1373,"0","65025, вул. Затонського, 15а","52-32-78",NA,"oss40maket@gmail.com",27.6406329,49.3905781,"49.3905781:27.6406329"
"106","Одеса","ЗНЗ","Одеська загальноосвітня школа № 41 І-ІІІ ступенів Одеської міської ради Одеської області","загальноосвітній заклад","19",227,"10","65042, площа Мічуріна, 9","720-32-64",NA,"school-41planet@ukr.net",30.7116527,46.5401999,"46.5401999:30.7116527"
"107","Одеса","ЗНЗ","Одеська загальноосвітня школа № 44 І-ІІІ ступенів Одеської міської ради Одеської області","загальноосвітній заклад","63",1292,"0","65069, вул. Героїв Сталінграду, 36","755-92-08",NA,"zosh4422@gmail.com",35.162506,47.820871,"47.820871:35.162506"
"108","Одеса","ЗНЗ","Одеська загальноосвітня школа № 48 І-ІІІ ступенів Одеської міської ради Одеської області","загальноосвітній заклад","51",682,"0","65059, вул. 11 лінія, 2","755-93-60",NA,"school-48@ukr.net",32.068622,46.958646,"46.958646:32.068622"
"109","Одеса","ЗНЗ","Одеський навчально-виховний комплекс № 49 ""Спеціалізована школа – загальноосвітня школа І-ІІІ ступенів ""","спеціалізований заклад","98",1546,"0","65117, вул. Затонського, 12","751-20-93",NA,"Nvk_number_49@ukr.net",27.6406329,49.3905781,"49.3905781:27.6406329"
"110","Одеса","ЗНЗ","Одеська загальноосвітня школа № 61 І-ІІІ ступенів Одеської міської ради Одеської області","загальноосвітній заклад","49",809,"0","65031, вул. Ак. Воробйова, 20/1","720-21-14",NA,"odessa_school_61@ukr.net",30.694934,46.485562,"46.485562:30.694934"
"111","Одеса","ЗНЗ","Одеська загальноосвітня школа № 66 І-ІІІ ступенів Одеської міської ради Одеської області","загальноосвітній заклад","33",321,"0","65003, вул. Отамана Головатого, 94","778-61-07",NA,"66_1949@ukr.net",30.7220205,46.5128735,"46.5128735:30.7220205"
"112","Одеса","ЗНЗ","Одеський навчально-виховний комплекс № 67 ""Загальноосвітня школа І-ІІІ ступенів- ліцей"" Одеської міської ради Одеської області","спеціалізований заклад","69",954,"0","65111, вул. Ген. Бочарова, 14а","758-18-45",NA,"onvk67@ukr.net",-92.109435,38.5487983,"38.5487983:-92.109435"
"113","Одеса","ЗНЗ","Одеська загальноосвітня школа № 71 І-ІІІ ступенів Одеської міської ради Одеської області","загальноосвітній заклад","51",667,"0","65111, вул. Паустовського, 17а","755-62-22",NA,"school-odessa71@ukr.net",-92.109435,38.5487983,"38.5487983:-92.109435"
"114","Одеса","ЗНЗ","Одеська загальноосвітня школа № 73 І-ІІІ ступенів Одеської міської ради Одеської області","загальноосвітній заклад","65",1449,"0","65123, вул. Висоцького, 16","751-68-82",NA,"school73@meta.ua",27.0164578,49.4662214,"49.4662214:27.0164578"
"115","Одеса","ЗНЗ","Одеська загальноосвітня школа № 76 І-ІІІ ступенів Одеської міської ради Одеської області","загальноосвітній заклад","37",579,"0","65006, вул. Ак. Воробйова, 26","720-09-06",NA,"school762015@mail.ua",30.695778,46.493198,"46.493198:30.695778"
"116","Одеса","ЗНЗ","Одеська загальноосвітня школа № 92 І-ІІІ ступенів Одеської міської ради Одеської області","загальноосвітній заклад","74",1140,"0","65123, вул. Ген. Бочарова, 67","751-68-98",NA,"odeskazosh.92@gmail.com",NA,NA,"NA:NA"
"117","Одеса","ЗНЗ","Одеська загальноосвітня школа № 113 І-ІІІ ступенів Одеської міської ради Одеської області","загальноосвітній заклад","34",380,"0","65003, вул. Чорноморського козацтва, 7","723-32-16",NA,"school113@3g.ua",29.5533568,47.7249415,"47.7249415:29.5533568"
"118","Одеса","ЗНЗ","Одеська загальноосвітня школа № 125 І-ІІІ ступенів Одеської міської ради Одеської області","загальноосвітній заклад","15",448,"19","65055, вул. Кругова, 1","778-16-50",NA,"school125@ukr.net",38.8108791,48.4638743,"48.4638743:38.8108791"
"119","Одеса","ЗНЗ","Одеська загальноосвітня школа № 127 І-ІІ ступенів Одеської міської ради Одеської області","загальноосвітній заклад","19",116,"58","65041, вул. Хаджибеївська дорога, 32е","787-48-85",NA,"ozosh127@mail.ua",-91.4821482,38.6016779,"38.6016779:-91.4821482"
"120","Одеса","ЗНЗ","Одеський навчально – виховний комплекс «Дошкільний навчальний заклад – загальноосвітня школа І ступеня» № 187» Одеської міської ради Одеської області","спеціалізований заклад","26",117,"0","65096, вул. Посівна, 11","723-33-12",NA,"odesskinvk@gmail.com",30.716562,46.552131,"46.552131:30.716562"
"121","Одеса","ЗНЗ","Одеський спеціальний навчально – виховний комплекс № 241 «Волошки» «Дошкільний навчальний заклад – школа компенсуючого типу – загальноосвітня школа І ступеня» Одеської міської ради Одеської області","спеціалізований заклад","38",50,"0","65111, вул. Махачкалинська, 5А","751-12-58",NA,"voloshki.241@yandex.ua",-92.109435,38.5487983,"38.5487983:-92.109435"
"122","Одеса","ЗНЗ","Одеський навчально – виховний комплекс № 292 «Дошкільний навчальний заклад – спеціалізована школа І ступеня з поглибленим вивченням англійської мови» Одеської міської ради Одеської області","спеціалізований заклад","37",113,"0","65069, вул. Ак. Заболотного, 35А","755-88-01",NA,"nvk292@ukr.net",30.7927519,46.5771786,"46.5771786:30.7927519"
"123","Одеса","ЗНЗ","Одеський санаторний навчально – виховний комплекс № 313 «Дошкільний навчальний заклад компенсуючого типу – загальноосвітня школа І ступеня» Одеської міської ради Одеської області","спеціалізований заклад","33",121,"0","65069, вул. Капітана Кузнецова, 101","755-28-24",NA,"sad313@mail.ua",30.785115,46.575279,"46.575279:30.785115"
"124","Одеса","ЗНЗ","Одеська спеціальна школа № 75 I-II ступенів Одеської міської ради Одеської області","школа для дітей з вадами фізичного та розумового розвитку","46",155,"25","65038, вул. Дача Ковалевського, 85","726-56-06",NA,"school_75_odessa@mail.ru",30.741764,46.380238,"46.380238:30.741764"
"125","Одеса","ЗНЗ","Одеський ліцей з посиленою військово-фізичною підготовкою Одеської міської ради Одеської області","школа ліцей","20",250,"62","65076, вул. Профспілкова, 9","761-79-17",NA,"odvl@ukr.net",27.038624,49.425125,"49.425125:27.038624"
"126","Одеса","ЗНЗ","Одеська спеціалізована школа-інтернат №2 I-III ступенів з поглибленим вивченням англійської мови Одеської міської ради Одеської області","школа-інтернат","130",786,"10","65044, проспект Гагаріна, 6","776-20-97",NA,"іntenat_2odessa70@ukr.net",30.627996,50.445359,"50.445359:30.627996"
"127","Одеса","ЗНЗ","Одеська загальноосвітня школа–інтернат № 5 І-ІІІ ступенів Одеської міської ради Одеської області","школа-інтернат","29",150,"290","м. Одеса, 65038, вул. Дача Ковалевського, 85","786-55-92",NA,"odschool@ukr.net",30.7417635,46.3802375,"46.3802375:30.7417635"
"128","Житомир","ЗНЗ","Загальноосвітня школа I-III ступенів № 1 м. Житомира",NA,"52.0",485,NA,"10006, вул. Троянівська, 26","24-18-67",NA,NA,28.6388527,50.2530592,"50.2530592:28.6388527"
"129","Житомир","ЗНЗ","Ліцей № 2 м. Житомира",NA,"47.0",462,NA,"10007, вул. Саєнка, 56","42-95-35",NA,NA,29.915004,50.0853496,"50.0853496:29.915004"
"130","Житомир","ЗНЗ","Житомирська міська гімназія № 3","поглиблене вивчення іноземних мов","86.0",827,NA,"10014, вул. М. Грушевського, 8","22-75-32",NA,NA,30.69564,46.47732,"46.47732:30.69564"
"131","Житомир","ЗНЗ","Житомирська загальноосвітня школа I-III ступенів № 5",NA,"113.0",1521,NA,"10020, вул. О. Клосовського, 16","25-32-52",NA,NA,-73.9822683,40.7605505,"40.7605505:-73.9822683"
"132","Житомир","ЗНЗ","Загальноосвітня школа I-III ступенів № 6 ім. В.Г.Короленка м.Житомира",NA,"78.0",824,NA,"10003, майдан Короленка, 7","42-31-71",NA,NA,28.6500209,50.2625862,"50.2625862:28.6500209"
"133","Житомир","ЗНЗ","Загальноосвітня школа I-III ступенів № 7 м. Житомира",NA,"82.0",867,NA,"10003, вул. Перемоги, 79","25-26-34",NA,NA,34.122382,44.962526,"44.962526:34.122382"
"134","Житомир","ЗНЗ","Загальноосвітня школа I-III ступенів № 8 м. Житомира",NA,"67.0",819,NA,"10001, Майдан Згоди, 5","41-46-14",NA,NA,28.682543,50.2652775,"50.2652775:28.682543"
"135","Житомир","ЗНЗ","Загальноосвітня школа I-III ступенів № 10 м. Житомира",NA,"27.0",223,NA,"10007, Київське шосе, 37","42-80-76.",NA,NA,28.708803,50.276435,"50.276435:28.708803"
"136","Житомир","ЗНЗ","Житомирська загальноосвітня школа I-III ступенів № 14",NA,"59.0",575,NA,"10009, вул. Кибальчича, 7","33-39-40",NA,NA,30.598029,50.491302,"50.491302:30.598029"
"137","Житомир","ЗНЗ","Загальноосвітня школа I-III ступенів № 15 м. Житомира",NA,"33.0",254,NA,"10028, вул. Максютова, 261","26-74-27",NA,NA,-73.9521468,40.7766412,"40.7766412:-73.9521468"
"138","Житомир","ЗНЗ","Житомирська загальноосвітня школа I-III ступенів № 17",NA,"50.0",496,NA,"10030, вул. Київська, 49","47-38-73",NA,NA,30.750969,50.494514,"50.494514:30.750969"
"139","Житомир","ЗНЗ","Загальноосвітня школа I-III ступенів № 19 м. Житомира",NA,"84.0",1114,NA,"10029, вул. Л. Українки, 71","42-19-89",NA,NA,28.6683829,50.2665985,"50.2665985:28.6683829"
"140","Житомир","ЗНЗ","Загальноосвітня школа I-III ступенів № 21 м. Житомира",NA,"82.0",1174,NA,"10014, вул. 1 Травня, 6-а","47-06-55",NA,NA,32.3080444,46.1242586,"46.1242586:32.3080444"
"141","Житомир","ЗНЗ","Житомирська загальноосвітня школа I-III ступенів № 22 імені В.М. Кавуна",NA,"57.0",617,NA,"10009, вул. Космонавтів, 34","33-50-84",NA,NA,32.034089,46.936599,"46.936599:32.034089"
"142","Житомир","ЗНЗ","Житомирська міська гуманітарна гімназія № 23ім. М.Й.Очерета","поглиблене вивчення іноземних мов","135.0",1547,NA,"10014, вул. Лятошинського, 14","47-08-80",NA,NA,-74.0094471,40.7366138,"40.7366138:-74.0094471"
"143","Житомир","ЗНЗ","Житомирський екологічний ліцей № 24",NA,"127.0",1625,NA,"10024, Шевченка, 105-6","33-30-04",NA,NA,36.257232,50.000305,"50.000305:36.257232"
"144","Житомир","ЗНЗ","Ліцей № 25 ім. М.О.Щорса м. Житомира","поглиблене вивчення математики, біології","90.0",985,NA,"10014, вул. М. Бердичівська, 18","37-22-96",NA,NA,28.663782,50.251609,"50.251609:28.663782"
"145","Житомир","ЗНЗ","Загальноосвітня школа I-III ступенів № 26 м. Житомира",NA,"85.0",863,NA,"10004, пр. Миру, 59","51-63-91",NA,NA,28.603759,50.283134,"50.283134:28.603759"
"146","Житомир","ЗНЗ","Загальноосвітня школа I-III ступенів № 27 м. Житомира","поглиблене вивчення іноземних мов","78.0",965,NA,"10020, пр. Миру, 27 вул. О. Клосовського, 12","25-98-98",NA,NA,-73.9822683,40.7605505,"40.7605505:-73.9822683"
"147","Житомир","ЗНЗ","Загальноосвітня школа І-ІІІ ступенів № 28 м. Житомира імені гетьмана Івана Виговського",NA,"131.0",1459,NA,"10031, вул. М. Рибалка, 17","25-97-66",NA,NA,26.9831939,49.4380504,"49.4380504:26.9831939"
"148","Житомир","ЗНЗ","Житомирська загальноосвітня школа I-III ступенів № ЗО",NA,"89.0",881,NA,"10025, пров. Шкільний, 4","33-09-03",NA,NA,28.7084298,50.2514973,"50.2514973:28.7084298"
"149","Житомир","ЗНЗ","Житомирська загальноосвітня школа I-III ступенів № 32",NA,"зо",261,NA,"10005, вул. Чуднівська, 48","24-27-16",NA,NA,28.6474596,50.2451598,"50.2451598:28.6474596"
"150","Житомир","ЗНЗ","Житомирська загальноосвітня школа I-III ступенів № 33",NA,"71.0",775,NA,"10002, В. Бердичівська, 52","34-14-98",NA,NA,30.4798735,50.4594526,"50.4594526:30.4798735"
"151","Житомир","ЗНЗ","Житомирський міський колегіум","поглиблене вивчення іноземних мов","86.0",922,NA,"10002, вул. Мануїльського, 18","37-30-35",NA,NA,28.689132,50.251098,"50.251098:28.689132"
"152","Житомир","ЗНЗ","Загальноосвітня школа I-III ступенів № 35 м. Житомира",NA,"33.0",240,NA,"10030, вул. Івана Мазепи, 95-а","37-31-24",NA,NA,28.676652,50.263549,"50.263549:28.676652"
"153","Житомир","ЗНЗ","Загальноосвітня школа I-III ступенів № 36 ім. Домбровського м. Житомира",NA,"59.0",645,NA,"10003, вул. Домбровського, 21","37-29-60",NA,NA,-73.9874105,40.7322535,"40.7322535:-73.9874105"
"154","Житомир","ЗНЗ","Житомирський ліцей при Житомирському державному технологічному університеті","поглиблене вивчення математики, фізики, інформатики","43.0",130,NA,"10004, пр-т Миру, 26","25-66-22",NA,NA,28.607929,50.284088,"50.284088:28.607929"
"155","Житомир","ЗНЗ","Житомирська гуманітарна гімназія № 1","поглиблене вивчення іноземних мов","29.0",235,NA,"10009, вул. Вітру ка, 55","33-59-19",NA,NA,28.702495,50.239906,"50.239906:28.702495"
"156","Житомир","ЗНЗ","Вечірня загальноосвітня школа ІІ-ІІІ ступенів Житомирської міської ради",NA,"25.0",100,NA,"10020, вул. Каракульна, 15","25-94-00",NA,NA,-73.9822683,40.7605505,"40.7605505:-73.9822683"
"157","Житомир","ЗНЗ","Спеціалізована загальноосвітня школа І-III ступенів №12 ім. С.Ковальчука м.Житомира","поглиблене вивчення англійської мови","71.0",715,NA,"10014, Старий бульвар, 4","47-39-28",NA,NA,28.668338,50.250995,"50.250995:28.668338"
"158","Житомир","ЗНЗ","Загальноосвітня спеціалізована школа I-III ступенів №16 м.Житомира","поглиблене вивчення німецької мови","107.0",891,NA,"10031, вул. М. Рибалка 15","25-49-18",NA,NA,26.983178,49.437605,"49.437605:26.983178"
"159","Житомир","ЗНЗ","Житомирська спеціалізована школа I-III ступенів №20 Житомирської міської ради","поглиблене вивчення французької мови","64.0",698,NA,"10012, вул. Східна, 65","37-50-62",NA,NA,28.683799,50.26094,"50.26094:28.683799"
"160","Черкаси","ЗНЗ","Перша міська гімназія Черкаської міської ради Черкаської області","іноземна мова","68",664,NA,"18000, м. Черкаси, вул. Святотроїцька, 68","(0472) 32-58-28","http://www.fcg.ck.ua",NA,32.0542565,49.4450896,"49.4450896:32.0542565"
"161","Черкаси","ЗНЗ","Черкаська загальноосвітня школа І-ІІІ ступенів №2 Черкаської міської ради Черкаської області","хіміко-технологічний, історичний,  української мови","43",660,NA,"18028, м. Черкаси, вул. Самійла Кішки, 187","(0472) 64-84-11",NA,NA,NA,NA,"NA:NA"
"162","Черкаси","ЗНЗ","Черкаська спеціалізована школа І-ІІІ ступенів № 3 Черкаської міської ради Черкаської області","хімія, біологія, іноземна мова","55",694,NA,"18000 , м. Черкаси, вул. Байди Вишневецького, 58","(0472) 37-20-87","http://school3.ck.ua",NA,32.055734,49.4423503,"49.4423503:32.055734"
"163","Черкаси","ЗНЗ","Черкаська загальноосвітня школа І-ІІІ ступенів №4 Черкаської міської ради Черкаської області","біолого-хімічний, історичний,  математики","55",741,NA,"18005 , м. Черкаси, Кривалівська, 16","(0472) 31-24-11",NA,NA,32.0921052,49.4354895,"49.4354895:32.0921052"
"164","Черкаси","ЗНЗ","Черкаська загальноосвітня школа І - ІІІ ступенів № 5 Черкаської міської ради Черкаської області","універсальний, математичний,  українська мова, хімія","48",540,NA,"18005, м. Черкаси, Різдвяна, 60","(0472) 71-66-62","http://school-five.ck.ua",NA,32.0892956,49.425883,"49.425883:32.0892956"
"165","Черкаси","ЗНЗ","Черкаська загальноосвітня школа І-ІІІ ступенів № 6 Черкаської міської ради Черкаської області","універсальний,  українська мова, географія","39",362,NA,"18031, м. Черкаси, Гоголя, 123","(0472) 37-54-47","http://ck-school6.at.ua",NA,32.0437079,49.4501025,"49.4501025:32.0437079"
"166","Черкаси","ЗНЗ","Черкаська загальноосвітня школа І-ІІІ ступенів №7 Черкаської міської ради Черкаської області","математичний, біолого-хімічний, української філології","41",523,NA,"18031, м. Черкаси, вул. Добровольчих батальйонів, 13","(0472) 55-03-61","http://school7.ck.ua",NA,32.0239365,49.4533399,"49.4533399:32.0239365"
"167","Черкаси","ЗНЗ","Черкаська загальноосвітня школа І-ІІІ ст №8 Черкаської міської ради Черкаської області","інформатика","38",444,NA,"18008, м. Черкаси, Смілянська, 88/2","(0472) 63-85-35","http://school8ck.at.ua",NA,32.066281,49.444673,"49.444673:32.066281"
"168","Черкаси","ЗНЗ","Черкаська гімназія №9 ім. О.М.Луценка Черкаської міської ради Черкаської області","українська мова, інформатика, історія, математика, фізика, хімія, біологія, іноземна мова","95",1291,NA,"18000, м. Черкаси, вул. Ю. Іллєнка, 52","(0472) 73-75-60","http://www.gym9.ck.ua/",NA,NA,NA,"NA:NA"
"169","Черкаси","ЗНЗ","Черкаська загальноосвітня школа І-ІІІ ступенів №10 Черкаської міської ради Черкаської області","українська філологія,  українська мова","44",496,NA,"18018, м. Черкаси, просп. Хіміків, 36","(0472) 64-56-18","http://school10ck.at.ua",NA,32.042358,49.408216,"49.408216:32.042358"
"170","Черкаси","ЗНЗ","Черкаська загальноосвітня школа І-ІІІ ступенів № 11 Черкаської міської ради Черкаської області","іноземна філологія","44",543,NA,"18015, м. Черкаси, вул. Надпільна, 291","(0472) 37-55-44","http://school11ck.ucoz.ua",NA,32.0604283,49.4362657,"49.4362657:32.0604283"
"171","Черкаси","ЗНЗ","Черкаська загальноосвітня школа І- ІІІ ступенів № 12 Черкаської міської ради Черкаської області","математичний, української філології","49",677,NA,"18000, м. Черкаси, вул. Богдана Хмельницького, 118","(0472) 32-08-04","http://school12.edukit.ck.ua",NA,32.0658393,49.4309096,"49.4309096:32.0658393"
"172","Черкаси","ЗНЗ","Черкаська спеціалізована школа І-ІІІ ступенів № 13 Черкаської міської ради Черкаської області","українська філологія,  українська мова, економіка","52",692,NA,"18030, м. Черкаси, вул. Гетьмана Сагайдачного, 146","(0472) 73-17-20","http://school13.ck.ua",NA,32.0939398,49.4082228,"49.4082228:32.0939398"
"173","Черкаси","ЗНЗ","Черкаська загальноосвітня школа І-ІІІ ступенів №15 Черкаської міської ради Черкаської області","математичний, хіміко-технологічний, українська філологія, військово-спортивний","66",756,NA,"18006, м. Черкаси, вул. Кобзарська, 77","(0472) 71-35-95","http://school15.ck.ua",NA,32.1007169,49.4223016,"49.4223016:32.1007169"
"174","Черкаси","ЗНЗ","Черкаська спеціалізована школа І-ІІІ ступенів №17 Черкаської міської ради Черкаської області","українська філологія, історичний,  англійська мова, математика, фізика","132",1941,NA,"18000, м. Черкаси, вул. Хрещатик, 218","(0472) 32-12-33","http://www.school17.ck.ua",NA,32.0613909,49.4459759,"49.4459759:32.0613909"
"175","Черкаси","ЗНЗ","Черкаська спеціалізована школа I-III ступенів №18 Черкаської міської ради Черкаської області","інформатика, англійська мова, українська мова, математика, біологія","69",1000,NA,"18028, м. Черкаси, вул. Нечуя -Левицького, 12","(0472) 64-75-00",NA,NA,32.058837,49.4084985,"49.4084985:32.058837"
"176","Черкаси","ЗНЗ","Черкаська загальноосвітня школа І-ІІІ ступенів №19 Черкаської міської ради Черкаської області","біолого-хімічний, хімія","43",549,NA,"18031, м. Черкаси, Університетська, 62а","(0472) 65-90-79","http://sites.google.com/site/school19ck",NA,32.039352,49.449225,"49.449225:32.039352"
"177","Черкаси","ЗНЗ","Черкаська спеціалізована школа І - ІІІ ступенів № 20 Черкської міської ради","універсальний,  українська мова, музичне мистецтво, образотворче мистецтво","68",710,NA,"18003, м. Черкаси, вул. Бидгощська, 3","(0472) 64-82-50","http:// ckschool20.at.ua",NA,32.0612831,49.4217129,"49.4217129:32.0612831"
"178","Черкаси","ЗНЗ","Черкаська загальноосвітня школа I-III ступенів № 21 Черкаської міської ради Черкаської області","історичний, українська філологія","49",619,NA,"18005, м. Черкаси, вул. Нижня Горова, 82","(0472) 72-49-38","http://sch21cks.at.ua",NA,32.0990037,49.4318649,"49.4318649:32.0990037"
"179","Черкаси","ЗНЗ","Черкаська загальноосвітня школа І - ІІІ ступенів № 22 Черкаської міської ради Черкаської області","українська філологія,  українська мова","38",473,NA,"18020, м. Черкаси, вул. Кобзарська, 108","(0472) 73-78-40","http://ckschool22.at.ua",NA,32.0904492,49.4152746,"49.4152746:32.0904492"
"180","Черкаси","ЗНЗ","Черкаський колегіум ""Берегиня"" Черкаської міської ради Черкаської області","математика, українська мова","65",1021,NA,"18008 , м. Черкаси, вул. Хоменко, 14/1","(0472) 63-78-45","http://bereginea.at.ua",NA,32.039525,49.427716,"49.427716:32.039525"
"181","Черкаси","ЗНЗ","Черкаська загальноосвітня школа І-ІІІ ступенів № 24 Черкаської міської ради Черкаської області","універсальний, українська філологія,  українська мова","43",514,NA,"18003, м. Черкаси, Бидгощська, 1","(0472) 63-25-80","http://sh24.ucoz.com",NA,32.070908,49.415982,"49.415982:32.070908"
"182","Черкаси","ЗНЗ","Черкаська загальноосвітня школа І-ІІІ ступенів № 25 Черкаської міської ради Черкаської області","історичний, українська філологія","33",379,NA,"18030 , м. Черкаси, вул. Нарбутівська, 206","(0472) 73-16-92","http://school25ck.at.ua",NA,32.0989836,49.411389,"49.411389:32.0989836"
"183","Черкаси","ЗНЗ","Черкаська загальноосвітня школа І-ІІІ ступенів № 26 ім. І.Ф. Момота Черкаської міської ради Черкаської області","математичний, екологічний, історія україни","45",572,NA,"18029, м. Черкаси, вул. Олени Теліги, 15","(0472) 66-07-49","http://school26-ck.at.ua",NA,32.0222605,49.425052,"49.425052:32.0222605"
"184","Черкаси","ЗНЗ","Черкаська спеціалізована школа №27 I -III ступенів ім. М. К. Путейка Черкаської міської ради Черкаської області","англійська мова","61",707,NA,"18032, м. Черкаси, вул. Сумгаїтська, 22","(0472) 66-25-75","http://school27ck.narod.ru",NA,32.0166978,49.4353284,"49.4353284:32.0166978"
"185","Черкаси","ЗНЗ","Черкаська спеціалізована школа І-ІІІ ступенів №28 ім. Т.Г. Шевченка Черкаської міської ради Черкаської області","українська мова, англійська мова","80",955,NA,"18029, м. Черкаси, вул. Героїв Майдану, 3","(0472) 66-18-95","http://sch28.at.ua/",NA,32.0065624,49.433557,"49.433557:32.0065624"
"186","Черкаси","ЗНЗ","Черкаська загальноосвітня школа І-ІІІ ступенів №29 Черкаської міської ради Черкаської області","українська мова","28",250,NA,"18035, м. Черкаси, вул. Карбишева, 5","(0472) 31-02-53","http://sch29.at.ua",NA,31.9822527,49.4832009,"49.4832009:31.9822527"
"187","Черкаси","ЗНЗ","Черкаська загальноосвітня школа І-ІІІ ступенів № 30 Черкаської міської ради Черкаської області","математичний,  українська мова, інформатика","67",885,NA,"18029, м. Черкаси, вул. Батицького, 14","(0472) 66-68-37","http://www.school30ck.ucoz.ua",NA,32.0166164,49.4264905,"49.4264905:32.0166164"
"188","Черкаси","ЗНЗ","Черкаська гімназія № 31 Черкаської міської ради Черкаської області","англійська мова, математика, історія, німецька мова","96",1235,NA,"18021, м. Черкаси, вул. Героїв Дніпра, 27","(0472) 72-41-08","http://gymnasia31.ck.ua",NA,32.0889169,49.4368391,"49.4368391:32.0889169"
"189","Черкаси","ЗНЗ","Черкаська загальноосвітня школа І-ІІІ ступенів №32 Черкаської міської ради Черкаської області","українська філологія,  математика, інформатика","59",927,NA,"18024, м. Черкаси, вул. героїв Майдану, 10","(0472) 66-09-44","http://school32.ck.ua",NA,32.0026396,49.4339215,"49.4339215:32.0026396"
"190","Черкаси","ЗНЗ","Черкаська спеціалізована школа І-ІІІ ступенів №33 ім. В. Симоненка Черкаської міської ради Черкаської області","англійська мова, біологія","61",797,NA,"18021, м. Черкаси, вул. Героів Дніпра, 13","(0472) 72-72-34","http://school33.sch.in.ua",NA,32.0935005,49.4381081,"49.4381081:32.0935005"
"191","Черкаси","ЗНЗ","Черкаський навчально-виховний комплекс ""Загальноосвітня школа І-ІІІ ступенів - ліцей спортивного профілю №34"" Черкаської міської ради Черкаської області","українська філологія, універсальний,  математика, українська мова","56",677,NA,"18021, м. Черкаси, вул. Гагаріна, 91","(0472) 54-23-20","http://nvkschool34.at.ua",NA,32.0807909,49.4369731,"49.4369731:32.0807909"
"192","Черкаси","ЗНЗ","Черкаський гуманітарно-правовий ліцей Черкаської міської ради Черкаської області","англійська мова, історія, право","33",312,NA,"18015, м. Черкаси, вул. Надпільна, 291","(0472) 33-09-49","http://www.gplyceum.org.ua",NA,32.0604283,49.4362657,"49.4362657:32.0604283"
"193","Черкаси","ЗНЗ","Черкаський фізико-математичний ліцей Черкаської міської ради Черкаської області","математика, фізика","28",354,NA,"18005, м. Черкаси, вул. Благовісна, 280","(0472) 31-43-95","http://phymly.ck.sch.in.ua",NA,32.0759796,49.42899,"49.42899:32.0759796"
"194","Черкаси","ЗНЗ","Черкаське навчально-виховне обєднання ""Дошкільний навчальний заклад-загальноосвітня школа І-ІІ ступенів №36"" ім. Героїв-прикордонників Черкаської міської ради Черкаської області",NA,"20",107,NA,"19601, м. Черкаси, с-ще Оршанець, вул. підполковника Красніка, 3","(0472) 50-04-72","http://nvo36.ck.sch.in.ua",NA,-75.9405178,40.3537241,"40.3537241:-75.9405178"
"195","Черкаси","ЗНЗ","Черкаська приватна загальноосвітня школа І-ІІІ ступенів ""Перлина""",NA,"20",98,NA,"18005, м. Черкаси, вул. Ю. Іллєнка, 9/1","(0472) 72-27-81","http://www.perlyna.at.ua",NA,NA,NA,"NA:NA"
"196","Черкаси","ЗНЗ","Черкаська приватна загальноосвітня школа І-ІІІ ступенів №770",NA,"15",19,NA,"18023, м. Черкаси, вул. Благовісна, 148","(0472) 72-43-08",NA,NA,32.0503419,49.443403,"49.443403:32.0503419"
"197","Черкаси","ЗНЗ","Черкаська приватна загальноосвітня школа ""Софія""",NA,"18",78,NA,"18030 , м. Черкаси, вул. Пацаєва, 4","(0472) 38-48-80",NA,NA,32.1063365,49.4105755,"49.4105755:32.1063365"
"198","Черкаси","ЗНЗ","Черкаська вечірня (змінна) школа ІІ-ІІІ ступенів Черкаської міської ради Черкаської області",NA,"16",255,NA,"18008 , м. Черкаси, вул. Вернигори, 19","(0472) 63-19-15",NA,NA,32.0436455,49.4293045,"49.4293045:32.0436455"
"199","Чернівці","ЗНЗ","Чернівецький ліцей № 1 Чернівецької міської ради","профіль – фізико-математичний, економічний","24",206,"0","58001, м. Чернівці, вул. Штейнбарга, 2","55-07-20",NA,NA,25.9314199,48.292252,"48.292252:25.9314199"
"200","Чернівці","ЗНЗ","Чернівецький ліцей № 2 Чернівецької міської ради","профіль – філософсько-правовий, історичний","20",150,"0","58003, м. Чернівці, вул. Л. Кобилиці 88-А","55-41-97",NA,NA,25.949228,48.286049,"48.286049:25.949228"
"201","Чернівці","ЗНЗ","Чернівецький міський ліцей № 3 медичного профілю Чернівецької міської ради","профіль – медичний","28",353,"0","58022, м. Чернівці, вул. Залозецького, 13-А","54-68-51",NA,NA,NA,NA,"NA:NA"
"202","Чернівці","ЗНЗ","Чернівецький багатопрофільний ліцей № 4 Чернівецької міської ради","багатопрофільність – іноземна філологія, технологічний (перукарська справа, автосправа)","66",788,"0","58029, м. Чернівці вул. Небесної Сотні, 18-А","3-30-58",NA,NA,25.9378676,48.2651801,"48.2651801:25.9378676"
"203","Чернівці","ЗНЗ","Чернівецькій військово-спортивний ліцей-інтернат Чернівецької міської ради","профіль – військово-спортивний","29",214,"0","58004, м. Чернівці вул. Луковецька, 29","52-24-71",NA,NA,25.9032275,48.28832,"48.28832:25.9032275"
"204","Чернівці","ЗНЗ","Чернівецька гімназія № 1 Чернівецької міської ради ім. Т. Г. Шевченка.","поглиблене вивчення німецької мови","82",630,"0","58005, м. Чернівці, Проспект Незалежності, 68","53-12-78",NA,NA,25.943207,48.2690809,"48.2690809:25.943207"
"205","Чернівці","ЗНЗ","Чернівецька гімназія № 2 Чернівецької міської ради","багатопрофільна гімназія з українською мовою навчання","52",362,"0","58000, м. Чернівці, вул. Головна, 73","51-15-21",NA,NA,25.9347605,48.2892661,"48.2892661:25.9347605"
"206","Чернівці","ЗНЗ","Чернівецька гімназія № 3 Чернівецької міської ради","поглиблене вивчення французької та англійської мов","59",382,"0","58001, м. Чернівці, вул. Головна, 131","52-66-37",NA,NA,25.9410869,48.2812345,"48.2812345:25.9410869"
"207","Чернівці","ЗНЗ","Чернівецька гімназія № 4 Чернівецької міської ради","поглиблене вивчення англійської мови","72",568,"0","58006, м. Чернівці, вул. Щепкіна, 2","55-14-93",NA,NA,25.9274576,48.297155,"48.297155:25.9274576"
"208","Чернівці","ЗНЗ","Чернівецька гімназія № 5 Чернівецької міської ради","профіль – біотехнологічний, правовий","54",425,"0","58001, м. Чернівці, вул. Д. Загула, 8","3-20-90",NA,NA,25.934577,48.283325,"48.283325:25.934577"
"209","Чернівці","ЗНЗ","Чернівецька гімназія № 6 Чернівецької міської ради","школа з вивченням мови нацменшин (румунська мова)","26",101,"0","58000, м. Чернівці, вул. Шептицького, 19","52-35-69",NA,NA,25.9394876,48.2923884,"48.2923884:25.9394876"
"210","Чернівці","ЗНЗ","Чернівецька гімназія № 7 Чернівецької міської ради","поглиблене вивчення англійської мови","93",741,"0","58029, м. Чернівці, Проспект Незалежності, 88","3-52-01",NA,NA,25.9342035,48.2697905,"48.2697905:25.9342035"
"211","Чернівці","ЗНЗ","Чернівецька загальноосвітня школа І-ІІІ ступенів № 1 Чернівецької міської ради","профіль – історичний","39",542,"0","58002, м. Чернівці вул. Емінеску, 1","52-59-83",NA,NA,25.93364,48.2915455,"48.2915455:25.93364"
"212","Чернівці","ЗНЗ","Чернівецька загальноосвітня школа І-ІІІ ступенів № 2 ім. Ю. Федьковича Чернівецької міської ради","профіль – універсальний","43",720,"0","58001, м. Чернівці, вул. Головна, 87","52-36-49",NA,NA,25.9363961,48.286775,"48.286775:25.9363961"
"213","Чернівці","ЗНЗ","Чернівецька загальноосвітня школа І-ІІІ ступенів № 3 Чернівецької міської ради","профіль – українська філологія, історичний","45",594,"0","58003, м. Чернівці, вул. Герцена, 36","53-82-35",NA,NA,25.952833,48.282097,"48.282097:25.952833"
"214","Чернівці","ЗНЗ","Чернівецька загальноосвітня школа І-ІІІ ступенів № 4 Чернівецької міської ради","мова навчання – українська, російська","44",530,"0","58000, м. Чернівці, вул. Шевченка, 14-16","52-62-96",NA,NA,25.9369,48.284635,"48.284635:25.9369"
"215","Чернівці","ЗНЗ","Чернівецька загальноосвітня школа І-ІІІ ступенів № 5 Чернівецької міської ради","профіль – універсальний","57",801,"0","58000, м. Чернівці, вул. Л. Українки, 1","55-27-11",NA,NA,25.93096,48.289237,"48.289237:25.93096"
"216","Чернівці","ЗНЗ","Чернівецька спеціалізована школа І-ІІІ ступенів № 6 фізико-математичного профілю Чернівецької міської ради","профіль – фізико-математичний, поглиблене вивчення англійської мови","68",971,"0","58013, м. Чернівці, вул. Комарова, 26-В","4-26-38",NA,NA,25.935187,48.2593934,"48.2593934:25.935187"
"217","Чернівці","ЗНЗ","Чернівецька загальноосвітня школа І-ІІІ ступенів № 8 Чернівецької міської ради","профіль – історичний","45",527,"0","58004, м. Чернівці, вул. Дзержика, 22","52-44-73",NA,NA,25.9150941,48.2848058,"48.2848058:25.9150941"
"218","Чернівці","ЗНЗ","Чернівецька загальноосвітня школа І-ІІІ ступенів № 10 Чернівецької міської ради","школа з вивченням мови нацменшин (румунська мова)","20",118,"0","58004, м. Чернівці, вул. Горіхівська, 31","52-28-12",NA,NA,25.8914074,48.2871679,"48.2871679:25.8914074"
"219","Чернівці","ЗНЗ","Чернівецька загальноосвітня школа І-ІІІ ступенів № 11 Чернівецької міської ради","профіль – українська філологія","51",676,"0","58013, м. Чернівці, вул. Півд. -Кільцева, 7-Б","7-98-04",NA,NA,25.9365806,48.2520439,"48.2520439:25.9365806"
"220","Чернівці","ЗНЗ","Чернівецька загальноосвітня школа І-ІІІ ступенів № 12 Чернівецької міської ради","профіль – універсальний","29",345,"0","58000, м. Чернівці, вул. Бережанська, 25-А","52-95-21",NA,NA,25.914513,48.306995,"48.306995:25.914513"
"221","Чернівці","ЗНЗ","Чернівецька загальноосвітня школа І-ІІ ступенів № 13 Чернівецької міської ради","школа з вивченням мови нацменшин (румунська мова)","17",102,"0","58023, м. Чернівці, вул. Немирівська, 3","58-98-69",NA,NA,25.993696,48.2794296,"48.2794296:25.993696"
"222","Чернівці","ЗНЗ","Чернівецька загальноосвітня школа І-ІІІ ступенів № 14 Чернівецької міської ради","профіль – універсальний","36",480,"0","58000, м. Чернівці, вул. Шкільна, 3","52-61-81",NA,NA,25.9386476,48.2941355,"48.2941355:25.9386476"
"223","Чернівці","ЗНЗ","Чернівецька загальноосвітня школа І-ІІІ ступенів № 16 Чернівецької міської ради","профіль – екологічний","41",501,"0","58002 м. Чернівці, вул. Білоруська, 77","58-28-37",NA,NA,25.9596059,48.2998479,"48.2998479:25.9596059"
"224","Чернівці","ЗНЗ","Чернівецька загальноосвітня школа І-ІІ ступенів № 17 Чернівецької міської ради","школа з вивченням мови нацменшин (румунська мова)","14",75,"0","58004, м. Чернівці, вул. Сокирянська, 18","51-05-78",NA,NA,25.8936946,48.2750336,"48.2750336:25.8936946"
"225","Чернівці","ЗНЗ","Чернівецька загальноосвітня школа І-ІІІ ступенів № 19 Чернівецької міської ради","профіль – універсальний","20",207,"0","58007, м. Чернівці, вул. Хотинська, 23","52-95-21",NA,NA,25.9289984,48.3175865,"48.3175865:25.9289984"
"226","Чернівці","ЗНЗ","Чернівецька загальноосвітня школа І-ІІІ ступенів №20 Чернівецької міської ради","профіль – українська філологія","33",344,"0","58018, м. Чернівці, вул. Глібова, 12","4-01-38",NA,NA,25.949843,48.269485,"48.269485:25.949843"
"227","Чернівці","ЗНЗ","Чернівецька спеціалізована школа І-ІІІ ступенів № 22 Чернівецької міської ради","поглиблене вивчення англійської мови","90",1197,"0","58032, м. Чернівці, вул. Південно-Кільцева, 17","4-49-16",NA,NA,25.9365806,48.2520439,"48.2520439:25.9365806"
"228","Чернівці","ЗНЗ","Чернівецька загальноосвітня школа І-ІІІ ступенів № 24 ім.О.Кобилянської Чернівецької міської ради","профіль – філологічний, інформаційно-технологічний","67",997,"0","58018, м. Чернівці, вул. Стефюка, 5","4-09-10",NA,NA,25.9463324,48.2664329,"48.2664329:25.9463324"
"229","Чернівці","ЗНЗ","Чернівецька загальноосвітня школа І-ІІІ ступенів №25 Чернівецької міської ради","профіль – екологічний","23",338,"0","58004, м. Чернівці, вул. Благоєва, 8-А","52-63-75",NA,NA,25.9138015,48.2881755,"48.2881755:25.9138015"
"230","Чернівці","ЗНЗ","Чернівецька загальноосвітня школа І-ІІІ ступенів №27 Чернівецької міської ради","профіль – універсальний","82",1120,"0","58032, м. Чернівці, вул. Воробкевича, 19","7-24-00",NA,NA,25.947951,48.2564175,"48.2564175:25.947951"
"231","Чернівці","ЗНЗ","Чернівецька загальноосвітня школа І-ІІІ ступенів №28 Чернівецької міської ради","профіль – універсальний","61",969,"0","58023, м. Чернівці, вул. Руська, 257-А","6-09-11",NA,NA,25.9960966,48.2747455,"48.2747455:25.9960966"
"232","Чернівці","ЗНЗ","Чернівецька загальноосвітня школа І-ІІІ ступенів №30 Чернівецької міської ради","профіль – універсальний","33",371,"0","58022, м. Чернівці, вул. О. Щербанюка, 4","3-42-08",NA,NA,25.9323594,48.2745556,"48.2745556:25.9323594"
"233","Чернівці","ЗНЗ","Чернівецька загальноосвітня школа І-ІІІ ступенів №31 Чернівецької міської ради","профіль – екологічний","43",636,"0","58025, м. Чернівці, вул. Дібровецька, 5-а","54-19-31",NA,NA,25.9646385,48.3263356,"48.3263356:25.9646385"
"234","Чернівці","ЗНЗ","Чернівецька загальноосвітня школа І-ІІІ ступенів №33 технологічного профілю Чернівецької міської ради","профіль – технологічний","36",367,"0","58029, м. Чернівці, вул. Героїв Майдану, 152-А","3-40-57",NA,NA,25.9272295,48.2739385,"48.2739385:25.9272295"
"235","Чернівці","ЗНЗ","Чернівецька загальноосвітня школа І-ІІІ ступенів №37 Чернівецької міської ради","профіль – українська філологія","43",562,"0","58025, м. Чернівці, вул. І. Підкови, 9","56-09-48",NA,NA,25.956684,48.34958,"48.34958:25.956684"
"236","Чернівці","ЗНЗ","Чернівецька загальноосвітня школа І-ІІІ ступенів №38 Чернівецької міської ради","профіль – універсальний","36",481,"0","58025, м. Чернівці, вул. Яна Налепки, 3","56-01-80",NA,NA,25.9576534,48.3518459,"48.3518459:25.9576534"
"237","Чернівці","ЗНЗ","Чернівецька загальноосвітня школа І-ІІІ ступенів №39 Чернівецької міської ради","профіль – українська філологія","28",320,"0","58025, м. Чернівці, вул. І. Карбулицького, 4","56-07-03",NA,NA,NA,NA,"NA:NA"
"238","Чернівці","ЗНЗ","Чернівецька загальноосвітня школа І-ІІІ ступенів №40 Чернівецької міської ради","профіль – універсальний","22",169,"0","58007, м. Чернівці, вул. Осіння, 58","52-94-37",NA,NA,25.897902,48.3299405,"48.3299405:25.897902"
"239","Чернівці","ЗНЗ","Чернівецька спеціалізована школа «Освітні ресурси та технологічний тренінг» І-ІІІ ступенів №41 з вивченням єврейського етнокультурного компонента Чернівецької міської ради","школа з вивченням мови нацменшин (іврит)","22",326,"0","58000, м. Чернівці, вул. Шкільна, 2","52-73-67",NA,NA,25.9375425,48.2940545,"48.2940545:25.9375425"
"240","Чернівці","ЗНЗ","Чернівецький комунальний дошкільний навчальний заклад-загальноосвітній навчальний заклад «Навчально-виховний комплекс «Берегиня» Чернівецької міської ради","функціонують дошкільний і шкільний підрозділи","21",198,"0","58025, м. Чернівці, вул. І. Карбулицького, 2","56-01-81",NA,NA,NA,NA,"NA:NA"
"241","Чернівці","ЗНЗ","Чернівецький комунальний дошкільний навчальний заклад-загальноосвітній навчальний заклад «Навчально-виховний комплекс «Любисток» Чернівецької міської ради","функціонують дошкільний і шкільний підрозділи профіль – біолого-хімічний, філологічний","51",719,"0","58023, м. Чернівці, вул. . Руська, 228-А","6-09-82",NA,NA,25.9791759,48.2797065,"48.2797065:25.9791759"
"242","Дніпро","ЗНЗ","Комунальний заклад освіти «Середня загальноосвітня школа № 8» Дніпропетровської міської ради","середня загальноосвітня школа І-ІІІ ступенів","46",1568,"739","м. Дніпропетровськ, вул. Прапорна, 23","27 10 63",NA,NA,35.0686398,48.5073107,"48.5073107:35.0686398"
"243","Дніпро","ЗНЗ","Комунальний заклад освіти «Середня загальноосвітня школа № 18» Дніпропетровської міської ради","середня загальноосвітня школа І-ІІІ ступенів","21",500,"319","м. Дніпропетровськ, вул.Волоколамська, 12","787 26 21",NA,NA,35.0251879,48.502151,"48.502151:35.0251879"
"244","Дніпро","ЗНЗ","Комунальний заклад освіти «Середня загальноосвітня школа № 26» Дніпропетровської міської ради","середня загальноосвітня школа І-ІІІ ступенів","40",560,"608","м. Дніпропетровськ, вул. Каруни, 129","787 03 02",NA,NA,35.0383524,48.498281,"48.498281:35.0383524"
"245","Дніпро","ЗНЗ","Комунальний заклад освіти «Середня загальноосвітня школа № 42» Дніпропетровської міської ради","середня загальноосвітня школа І-ІІІ ступенів","29",960,"383","м. Дніпропетровськ, вул. Ростовська, 88","23 70 16",NA,NA,35.052928,48.494636,"48.494636:35.052928"
"246","Дніпро","ЗНЗ","Комунальний заклад освіти «Середня загальноосвітня школа № 43» Дніпропетровської міської ради","середня загальноосвітня школа І-ІІІ ступенів","37",1110,"524","м. Дніпропетровськ, вул. Любарського,84","23 80 32",NA,NA,35.0758646,48.4817825,"48.4817825:35.0758646"
"247","Дніпро","ЗНЗ","Комунальний заклад освіти «Спеціалізована школа № 44 природничо-медичного профілю» Дніпропетровської міської ради","спеціалізована школа","43",1300,"611","м. Дніпропетровськ, вул. С.Ковалевської, 6","27 50 55",NA,NA,35.0750195,48.5149794,"48.5149794:35.0750195"
"248","Дніпро","ЗНЗ","Комунальний заклад освіти «Спеціалізована школа № 55 інформаційно-технологічного профіілю» Дніпропетровської міської ради","спеціалізована школа","38",1324,"508","м. Дніпропетровськ, вул. Луговська, 211;","23 12 94",NA,NA,35.0609375,48.4915331,"48.4915331:35.0609375"
"249","Дніпро","ЗНЗ","Комунальний заклад освіти «Середня загальноосвітня школа № 56» Дніпропетровської міської ради","середня загальноосвітня школа І-ІІІ ступенів","21",380,"324","м. Дніпропетровськ, вул. Скрябіна, 41","23 91 92",NA,NA,35.0138525,48.4988915,"48.4988915:35.0138525"
"250","Дніпро","ЗНЗ","Комунальний заклад освіти «Навчально- виховний комплекс № 57 «загальноосвітній навчальний заклад I ступеня – гімназія» Дніпропетровської міської ради","гімназія - загальноосвітній навчальний заклад I ступеня","71",1176,"1031","м. Дніпропетровськ, вул. Прогресивна, 3А;","23 13 47",NA,NA,35.0676754,48.4848554,"48.4848554:35.0676754"
"251","Дніпро","ЗНЗ","Комунальний заклад освіти «Середня загальноосвітня школа № 64» Дніпропетровської міської ради","середня загальноосвітня школа І-ІІІ ступенів","26",350,"420","м. Дніпропетровськ, вул. Петрозаводська, 377","27 10 63",NA,NA,34.9911483,48.5277676,"48.5277676:34.9911483"
"252","Дніпро","ЗНЗ","Комунальний заклад освіти «Середня загальноосвітня школа № 68» Дніпропетровської міської ради","середня загальноосвітня школа І-ІІІ ступенів","31",660,"243","м. Дніпропетровськ, вул. Каляєва, 76","787 18 82",NA,NA,35.0283904,48.5070435,"48.5070435:35.0283904"
"253","Дніпро","ЗНЗ","Комунальний заклад освіти «Середня загальноосвітня школа № 86» Дніпропетровської міської ради","середня загальноосвітня школа І-ІІІ ступенів","33",592,"471","м. Дніпропетровськ, вул. Янтарна, 39","724 67 11",NA,NA,35.045297,48.5090765,"48.5090765:35.045297"
"254","Дніпро","ЗНЗ","Комунальний заклад освіти «Середня загальноосвітня школа №114» Дніпропетровської міської ради","середня загальноосвітня школа І-ІІІ ступенів","22",250,"295","м. Дніпропетровськ, вул. Башкирська, 6","761 06 21",NA,NA,34.951593,48.5185677,"48.5185677:34.951593"
"255","Дніпро","ЗНЗ","Комунальний заклад освіти «Спеціалізована школа № 115» Дніпропетровської міської ради","спеціалізована школа","48",660,"640","м. Дніпропетровськ, вул. Передова, 427","760 00 02",NA,NA,34.9657034,48.528293,"48.528293:34.9657034"
"256","Дніпро","ЗНЗ","Комунальний заклад освіти «Середня загальноосвітня школа №116» Дніпропетровської міської ради","середня загальноосвітня школа І-ІІІ ступенів","24",500,"334","м. Дніпропетровськ, вул. Передова, 601","720 21 24",NA,NA,34.9477686,48.54203,"48.54203:34.9477686"
"257","Дніпро","ЗНЗ","Комунальний заклад освіти «Середня загальноосвітня школа № 117» Дніпропетровської міської ради","середня загальноосвітня школа І-ІІІ ступенів","25",350,"378","м. Дніпропетровськ, вул. Передова, 800а","720 23 06",NA,NA,34.9243045,48.5554405,"48.5554405:34.9243045"
"258","Дніпро","ЗНЗ","Комунальний заклад освіти «Навчально- виховний комплекс №131 «загальноосвітній навчальний заклад I ступеня – гімназія» Дніпропетровської міської ради","гімназія - загальноосвітній навчальний заклад I ступеня","80",1560,"1269","м. Дніпропетровськ, пров.С.Крушельницької, 10","724 27 72",NA,NA,35.0323654,48.5226285,"48.5226285:35.0323654"
"259","Дніпро","ЗНЗ","Комунальний заклад освіти «Середня загальноосвітня школа № 133» Дніпропетровської міської ради","середня загальноосвітня школа І-ІІІ ступенів","44",1568,"735","м. Дніпропетровськ, пров.С.Крушельницької 5а","761 82 82",NA,NA,35.027511,48.5189585,"48.5189585:35.027511"
"260","Дніпро","ЗНЗ","Комунальний заклад освіти «Спеціалізована школа № 134 гуманістичного навчання і виховання» Дніпропетровської міської ради","спеціалізована школа","72",1568,"1127","м. Дніпропетровськ, вул. Шолохова, 17","38 21 57",NA,NA,34.989023,48.5057999,"48.5057999:34.989023"
"261","Дніпро","ЗНЗ","Комунальний заклад освіти «Спеціалізована середня загально-освітня школа № 142 еколого – економічного профілю» Дніпропетровської міської ради","спеціалізована школа","74",1671,"1147","м. Дніпропетровськ, вул. Біляєва, 2","38 23 19",NA,NA,34.987815,48.5121935,"48.5121935:34.987815"
"262","Дніпро","ЗНЗ","Комунальний заклад освіти «Фінансово-економічний ліцей» Дніпропетровської міської ради","ліцей","24",240,"254","м. Дніпропетровськ, вул. Вітчизняна, 93","789 50 85",NA,NA,35.0347955,48.5156265,"48.5156265:35.0347955"
"263","Дніпро","ЗНЗ","Комунальний заклад освіти «Гімназія № 3» Дніпропетровської міської ради","гімназія","41",1320,"693","м. Дніпропетровськ, вул. Г.Корольової, 14б","27 06 41",NA,NA,35.0877585,48.5059465,"48.5059465:35.0877585"
"264","Дніпро","ЗНЗ","Комунальний заклад освіти «Спеціалізована школа № 7 з поглибленим вивченням іноземних мов» Дніпропетровської міської ради","спеціалізована школа","52",960,"904","м. Дніпропетровськ, вул. Тверська, 18","27 69 81",NA,NA,35.0812179,48.5121091,"48.5121091:35.0812179"
"265","Дніпро","ЗНЗ","Комунальний заклад освіти «Середня загальноосвітня школа № 14» Дніпропетровської міської ради","середня загальноосвітня школа І-ІІІ ступенів","35",960,"479","м. Дніпропетровськ, вул. Батумська, 20а","27 15 39",NA,NA,35.082359,48.5139445,"48.5139445:35.082359"
"266","Дніпро","ЗНЗ","Комунальний заклад освіти «Середня загальноосвітня школа № 17» Дніпропетровської міської ради","середня загальноосвітня школа І-ІІІ ступенів","32",384,"459","м. Дніпропетровськ, вул. Смоленська, 1","725 42 64",NA,NA,35.0691044,48.519447,"48.519447:35.0691044"
"267","Дніпро","ЗНЗ","Комунальний заклад освіти «Середня загальноосвітня школа № 29» Дніпропетровської міської ради","середня загальноосвітня школа І-ІІІ ступенів","28",960,"419","м. Дніпропетровськ, вул. Батумська, 64","27 06 73",NA,NA,35.0909324,48.5112585,"48.5112585:35.0909324"
"268","Дніпро","ЗНЗ","Комунальний заклад освіти «Навчально-виховний комплекс № 41» Дніпропетровської міської ради","середня загальноосвітня школа І-ІІІ ступенів","20",270,"286","м. Дніпропетровськ, вул. С. Ковалевської, 71а","726 20 40",NA,NA,35.051885,48.5185945,"48.5185945:35.051885"
"269","Дніпро","ЗНЗ","Комунальний заклад освіти «Середня загальноосвітня школа № 45» Дніпропетровської міської ради","середня загальноосвітня школа І-ІІІ ступенів","56",1080,"907","м. Дніпропетровськ, вул. С. Ковалевської, 88а","724 56 06",NA,NA,35.05284,48.5198257,"48.5198257:35.05284"
"270","Дніпро","ЗНЗ","Комунальний заклад освіти «Середня загальноосвітня школа № 47 з поглибленим вивченням іноземних мов та фізико-математичного профілю» Дніпропетровської міської ради","середня загальноосвітня школа І-ІІІ ступенів","41",600,"521","м. Дніпропетровськ, вул. Воронезька, 67","724 05 55",NA,NA,35.0561941,48.5255275,"48.5255275:35.0561941"
"271","Дніпро","ЗНЗ","Комунальний заклад освіти «Середня загальноосвітня школа № 63» Дніпропетровської міської ради","середня загальноосвітня школа І-ІІІ ступенів","43",1560,"586","м. Дніпропетровськ, вул. Янтарна, 71а","724 42 77",NA,NA,35.045192,48.5175443,"48.5175443:35.045192"
"272","Дніпро","ЗНЗ","Комунальний заклад освіти «Середня загальноосвітня школа № 69» Дніпропетровської міської ради","середня загальноосвітня школа І-ІІІ ступенів","37",1200,"632","м. Дніпропетровськ, вул. С. Ковалевської, 86а","724 83 70",NA,NA,35.053497,48.519064,"48.519064:35.053497"
"273","Дніпро","ЗНЗ","Комунальний заклад освіти «Навчально-виховний комплекс №108 «дошкільний навчальний заклад – загальноосвітній навчальний заклад компенсуючого типу для дітей з малими та затихаючими формами туберкульозу» Дніпропетровської міської ради","загальноосвітній навчальний заклад І ступеня - дошкільний навчальний заклад","32",150,"164","м. Дніпропетровськ, вул. Березинська, 16","724 27 90",NA,NA,35.039266,48.5254646,"48.5254646:35.039266"
"274","Дніпро","ЗНЗ","Комунальний заклад освіти «Навчально-виховне обєднання №113 «загальноосвітній навчальний заклад – дошкільний навчальний заклад – позашкільний навчальний заклад» Дніпропетровської міської ради","загальноосвітній навчальний заклад І-ІІІ ступенів – дошкільний навчальний заклад – позашкільний навчальний заклад","30",560,"272","м. Дніпропетровськ, вул. Лобачевського, 17а","27 30 03",NA,NA,35.1049726,48.5306295,"48.5306295:35.1049726"
"275","Дніпро","ЗНЗ","Комунальний заклад освіти «Середня загальноосвітня школа № 118 з поглибленим вивченням англійської та німецької мов і предметів природничо-математичного напрямку Дніпропетровської міської ради","середня загальноосвітня школа І-ІІІ ступенів","38",960,"634","м. Дніпропетровськ, вул.Б.Хмельницького, 15","27 69 32",NA,NA,35.079517,48.5056705,"48.5056705:35.079517"
"276","Дніпро","ЗНЗ","Комунальний заклад освіти «Середня загальноосвітня школа № 121» Дніпропетровської міської ради","середня загальноосвітня школа І-ІІІ ступенів","50",1176,"787","м. Дніпропетровськ, вул. Г. Корольової, 14г","27 39 71",NA,NA,35.0877906,48.507396,"48.507396:35.0877906"
"277","Дніпро","ЗНЗ","Комунальний заклад освіти «Середня загальноосвітня школа № 135» Дніпропетровської міської ради","середня загальноосвітня школа І-ІІІ ступенів","65",1200,"1031","м. Дніпропетровськ, вул. Березинська, 31","724 04 37",NA,NA,35.02247,48.5316901,"48.5316901:35.02247"
"278","Дніпро","ЗНЗ","Комунальний заклад освіти «Навчально-виховний комплекс № 138 «загальноосвітній навчальний заклад І ступеня - гімназія» міської ради","гімназія - загальноосвітній навчальний заклад I ступеня","53",1376,"979","м. Дніпропетровськ, вул. Березинська, 29","724 02 30",NA,NA,35.0244636,48.5306027,"48.5306027:35.0244636"
"279","Дніпро","ЗНЗ","Комунальний заклад освіти «Навчально-виховний комплекс № 139 «загальноосвітній навчальний заклад – центр творчості «Дума» Дніпропетровської міської ради","загальноосвітній навчальний заклад – центр творчості","68",1176,"1044","м. Дніпропетровськ, вул. Березинська, 4","724 54 55",NA,NA,35.0440961,48.5245205,"48.5245205:35.0440961"
"280","Дніпро","ЗНЗ","Комунальний заклад освіти «Дніпро-петровська середня загальноосвітня школа І-ІІІ ст. № 147 ім. В.Чорновола» Дніпропетровської міської ради","середня загальноосвітня школа І-ІІІ ступенів","54",1668,"947","м. Дніпропетровськ, пр. Миру, 51 А",NA,NA,NA,35.013172,48.527761,"48.527761:35.013172"
"281","Дніпро","ЗНЗ","Комунальний заклад освіти «Вечірня (змінна) середня загальноосвітня школа №38» Дніпропетровської міської ради","загальноосвітній навчальний заклад ІІ-ІІІ ступенів","5",NA,"87","м. Дніпропетровськ вул. Янтарна, 81-б","724-27-20",NA,NA,35.0444505,48.5274554,"48.5274554:35.0444505"
"282","Дніпро","ЗНЗ","Комунальний заклад освіти «Навчально-виховний комплекс № 4 «Середня загальноосвітня школа – дошкільний навчальний заклад (дитячий садок)» Дніпропетровської міської ради","середня загальноосвітня школа – дошкільний навчальний заклад","21",840,"276","м. Дніпропетровськ, вул. Олександра Красносельського, 30 а",NA,NA,NA,34.9611044,48.4559875,"48.4559875:34.9611044"
"283","Дніпро","ЗНЗ","Комунальний заклад освіти «Середня загальноосвітня школа № 5» Дніпропетровської міської ради","середня загальноосвітня школа І-ІІІ ступенів","36",730,"649","м.Дніпропетровськ, вул. Караваєва, 17а",NA,NA,NA,34.9800005,48.463798,"48.463798:34.9800005"
"284","Дніпро","ЗНЗ","Комунальний заклад освіти «Навчально-виховний комплекс № 36 «Спеціалізована середня загальноосвітня школа техніко-економічного профілю-дошкільний навчальний заклад» Дніпропетровської міської ради","спеціалізована школа - дошкільний навчальний заклад","32",700,"443","м. Дніпропетровськ, пр. Сергія Нігояна, 57","374 47 53",NA,NA,34.9851185,48.4761861,"48.4761861:34.9851185"
"285","Дніпро","ЗНЗ","Комунальний заклад освіти «Середня загальноосвітня школа № 50» Дніпропетровської міської ради","середня загальноосвітня школа І-ІІІ ступенів","27",820,"366","м. Дніпропетровськ, пр.Металургів, 43","760 58 48",NA,NA,34.9688011,48.447572,"48.447572:34.9688011"
"286","Дніпро","ЗНЗ","Комунальний заклад освіти «Середня загальноосвітня школа № 54» Дніпропетровської міської ради","середня загальноосвітня школа І-ІІІ ступенів","66",1176,"968","м. Дніпропетровськ, пров. Парусний, 3","773 41 06",NA,NA,34.9084311,48.4812477,"48.4812477:34.9084311"
"287","Дніпро","ЗНЗ","Комунальний заклад освіти «Навчально-виховний комплекс № 59 «Загальноосвітній навчальний заклад-дошкільний навчальний заклад» Дніпропетровської міської ради","загальноосвітній навчальний заклад - дошкільний навчальний заклад","68",936,"500","м. Дніпропетровськ, вул. Новоорловська, 1а","760 58 89",NA,NA,34.9850805,48.463308,"48.463308:34.9850805"
"288","Дніпро","ЗНЗ","Комунальний заклад освіти «Навчально-виховний комплекс № 72» Дніпропетровської міської ради","загальноосвітній навчальний заклад - дошкільний навчальний заклад","27",760,"233","м. Дніпропетровськ, вул.Фортечна, 42а","766 54 64",NA,NA,34.9580892,48.4856271,"48.4856271:34.9580892"
"289","Дніпро","ЗНЗ","Комунальний заклад освіти «Середня загальноосвітня школа № 74» Дніпропетровської міської ради","середня загальноосвітня школа І-ІІІ ступенів","31",960,"545","м. Дніпропетровськ, вул. Караваєва, 60","760 58 93",NA,NA,34.9743975,48.462194,"48.462194:34.9743975"
"290","Дніпро","ЗНЗ","Комунальний заклад освіти «Середня загальноосвітня школа № 77» Дніпропетровської міської ради","середня загальноосвітня школа І-ІІІ ступенів","29",600,"419","м. Дніпропетровсь , вул. Несторова, 29","760 58 88",NA,NA,34.9911745,48.4722435,"48.4722435:34.9911745"
"291","Дніпро","ЗНЗ","Комунальний заклад освіти «Середня загальноосвітня школа № 84» Дніпропетровської міської ради","середня загальноосвітня школа І-ІІІ ступенів","20",920,"305","м. Дніпропетровськ вул. Ю.Кондратюка, 264","767 43 59",NA,NA,34.913492,48.4619365,"48.4619365:34.913492"
"292","Дніпро","ЗНЗ","Комунальний заклад освіти «Середня загальноосвітня школа № 85» Дніпропетровської міської ради","середня загальноосвітня школа І-ІІІ ступенів","28",740,"406","м.Дніпропетровськ, вул. Західна, 1","760 53 20",NA,NA,34.9678284,48.4561435,"48.4561435:34.9678284"
"293","Дніпро","ЗНЗ","Комунальний заклад освіти «Середня загальноосвітня школа № 88» Дніпропетровської міської ради","середня загальноосвітня школа І-ІІІ ступенів","36",850,"421","м. Дніпропетровськ, пр. Свободи, 218","791 71 66",NA,NA,34.9455857,48.4807755,"48.4807755:34.9455857"
"294","Дніпро","ЗНЗ","Комунальний заклад освіти «Середня загальноосвітня школа № 91» Дніпропетровської міської ради","середня загальноосвітня школа І-ІІІ ступенів","59",960,"864","м. Дніпропетровськ, вул Данила Галицького, 52",NA,NA,NA,34.9348004,48.4597965,"48.4597965:34.9348004"
"295","Дніпро","ЗНЗ","Комунальний заклад освіти «Навчально-виховний комплекс № 92» Дніпропетровської міської ради","загальноосвітній навчальний заклад - дошкільний навчальний заклад","24",400,"250","м. Дніпропетровськ, вул. Проїжджа, 2-б","773 41 93",NA,NA,34.8832794,48.4561779,"48.4561779:34.8832794"
"296","Дніпро","ЗНЗ","Комунальний заклад освіти «Середня загальноосвітня школа № 93» Дніпропетровської міської ради","середня загальноосвітня школа І-ІІІ ступенів","23",1320,"231","м. Дніпропетровськ, вул. Д.Галицького, 54","741 72 07",NA,NA,34.9328746,48.459718,"48.459718:34.9328746"
"297","Дніпро","ЗНЗ","Комунальний заклад освіти «Середня загальноосвітня школа № 94» Дніпропетровської міської ради","середня загальноосвітня школа І-ІІІ ступенів","36",600,"454","м. Дніпропетровськ, вул. Велика Діївська, 463",NA,NA,NA,34.8823159,48.471767,"48.471767:34.8823159"
"298","Дніпро","ЗНЗ","Комунальний заклад освіти «Середня загальноосвітня школа № 96» Дніпропетровської міської ради","середня загальноосвітня школа І-ІІІ ступенів","55",1280,"854","м. Дніпропетровськ, вул. Коробова, 3а","748 58 66",NA,NA,34.9340699,48.4850555,"48.4850555:34.9340699"
"299","Дніпро","ЗНЗ","Комунальний заклад освіти «Середня загальноосвітня школа № 97» ім. П.І. Шкідченка» Дніпропетровської міської ради","середня загальноосвітня школа І-ІІІ ступенів","80",1568,"1361","м. Дніпропетровськ, вул. Велика Діївська, 42","778 88 83",NA,NA,34.9181664,48.4795181,"48.4795181:34.9181664"
"300","Дніпро","ЗНЗ","Комунальний заклад освіти «Навчально-виховний комплекс № 103 «Комунальний заклад освіти «Навчально-виховний комплекс № 103 «школа І-ІІІ ступенів – дошкільний навчальний заклад (дитячий садок)» Дніпропетровської міської ради (дитячий садок)» Дніпропетровської міської ради","загальноосвітній навчальний заклад - дошкільний навчальний заклад","32",689,"307","м. Дніпропетровськ, вул. Доблесна, 164","773-00-64",NA,NA,34.8513044,48.4809965,"48.4809965:34.8513044"
"301","Дніпро","ЗНЗ","Комунальний заклад освіти «Навчально-виховний комплекс № 106 «Середня загальноосвітня школа – дошкільний навчальний заклад (дитячий садок)» Дніпропетровської міської ради","загальноосвітній навчальний заклад - дошкільний навчальний заклад","48",1176,"693","м. Дніпропетровськ, вул.Метробудівська,7","778 74 07",NA,NA,34.914495,48.4800735,"48.4800735:34.914495"
"302","Дніпро","ЗНЗ","Комунальний заклад освіти «Середня загальноосвітня школа № 132» Дніпропетровської міської ради","середня загальноосвітня школа І-ІІІ ступенів","41",1176,"695","м.Дніпропетровськ, пров. Парусний,14","773 03 96",NA,NA,34.9059182,48.4787818,"48.4787818:34.9059182"
"303","Дніпро","ЗНЗ","Комунальний заклад освіти «Спеціалізована середня загальноосвітня школа № 141» Дніпропетровської міської ради","спеціалізована школа","55",1266,"734","м.Дніпропетровськ, вул. Моніторна, 3","773 41 85",NA,NA,34.9098011,48.477762,"48.477762:34.9098011"
"304","Дніпро","ЗНЗ","Комунальний заклад освіти «Середня загальноосвітня школа № 143» Дніпропетровської міської ради","середня загальноосвітня школа І-ІІІ ступенів","70",1290,"1009","м.Дніпропетровськ, вул. Коробова, 3Д,","778 91 95(6)",NA,NA,34.9301691,48.4839262,"48.4839262:34.9301691"
"305","Дніпро","ЗНЗ","Комунальний заклад освіти «Гімназія Ленінського району» Дніпропетровської міської ради","гімназія","21",300,"199","м.Дніпропетровськ, пров. Дружби, 4","760 58 82",NA,NA,34.9839381,48.4651695,"48.4651695:34.9839381"
"306","Дніпро","ЗНЗ","Комунальний заклад освіти «Вечірня (змінна) середня загальноосвітня школа №11» Дніпропетровської міської ради","загальноосвітній навчальний заклад ІІ-ІІІ ступенів","9",NA,"123","49068 м. Дніпропетровськ проспект Свободи, 147","741-72-54",NA,NA,34.9529855,48.4809205,"48.4809205:34.9529855"
"307","Дніпро","ЗНЗ","Комунальний заклад освіти «Середня загальноосвітня школа № 11» Дніпропетровської міської ради","середня загальноосвітня школа І-ІІІ ступенів","35",455,"399","м. Дніпропетровськ, вул.Станіславського, 12,","728 20 82",NA,NA,35.135768,48.4012517,"48.4012517:35.135768"
"308","Дніпро","ЗНЗ","Комунальний заклад освіти «Середня загальноосвітня школа № 24» Дніпропетровської міської ради","середня загальноосвітня школа І-ІІІ ступенів","37",750,"397","м. Дніпропетровськ, вул.Молодогвардійська, 18","23 03 78",NA,NA,35.117322,48.476495,"48.476495:35.117322"
"309","Дніпро","ЗНЗ","Комунальний заклад освіти «Середня загальноосвітня школа № 27» Дніпропетровської міської ради","середня загальноосвітня школа І-ІІІ ступенів","27",590,"321","м. Дніпропетровськ, вул. Світанкова, 1","728 30 33",NA,NA,35.127912,48.4046281,"48.4046281:35.127912"
"310","Дніпро","ЗНЗ","Комунальний заклад освіти «Середня загальноосвітня школа № 39» Дніпропетровської міської ради","середня загальноосвітня школа І-ІІІ ступенів","70",1100,"888","м. Дніпропетровськ, вул. Синельниківська, 5","731-21-86
731-37-40
731-38-40
",NA,NA,35.1374694,48.4879245,"48.4879245:35.1374694"
"311","Дніпро","ЗНЗ","Комунальний заклад освіти «Навчально-виховний комплекс № 70 «Середня загальноосвітня школа-дошкільний навчальний заклад (ясла-садок)» Дніпропетровської міської ради","середня загальноосвітня школа - дошкільний навчальний заклад","37",350,"309","м. Дніпропетровськ, вул. Лафарга, 1","731-22-62",NA,NA,35.1292431,48.486471,"48.486471:35.1292431"
"312","Дніпро","ЗНЗ","Комунальний заклад освіти «Середня загальноосвітня школа № 87» Дніпропетровської міської ради","середня загальноосвітня школа І-ІІІ ступенів","33",700,"320","м. Дніпропетровськ, вул. Мальовнича, 55","753 44 35",NA,NA,35.2014785,48.476041,"48.476041:35.2014785"
"313","Дніпро","ЗНЗ","Комунальний заклад освіти «Середня загальноосвітня школа № 98» Дніпропетровської міської ради","середня загальноосвітня школа І-ІІІ ступенів","57",960,"692","м. Дніпропетровськ, вул. Космонавтів, 7А,","728 30 23",NA,NA,35.1319116,48.4114318,"48.4114318:35.1319116"
"314","Дніпро","ЗНЗ","Комунальний заклад освіти «Середня загальноосвітня школа № 108» Дніпропетровської міської ради","середня загальноосвітня школа І-ІІІ ступенів","21",300,"220","м. Дніпропетровськ, вул. Чаплинська, 203,","728 13 42",NA,NA,35.1505356,48.4194387,"48.4194387:35.1505356"
"315","Дніпро","ЗНЗ","Комунальний заклад освіти «Навчально-виховне об’єднання № 109 «Загальноосвітній навчальний заклад-дошкільний навчальний заклад-позашкільний навчальний заклад» Дніпропетровської міської ради","загальноосвітній навчальний заклад - дошкільний навчальний заклад - позашкільний навчальний заклад","44",400,"215","м. Дніпропетровськ, вул. Здоров’я, 45А,","726 84 85",NA,NA,35.1527074,48.4735605,"48.4735605:35.1527074"
"316","Дніпро","ЗНЗ","Комунальний заклад освіти «Навчально- виховний комплекс № 110 «Школа І-ІІІ ступенів – дошкільний навчальний заклад (дитячий садок)» Дніпропетровської міської ради","середня загальноосвітня школа І-ІІІ ступенів - дитячий садок","34",250,"191","м. Дніпропетровськ, вул. Спогадів, 177","753 43 03",NA,NA,35.190324,48.4942124,"48.4942124:35.190324"
"317","Дніпро","ЗНЗ","Комунальний заклад освіти «Навчально-виховний комплекс № 122 «Загальноосвітній навчальний заклад-дошкільний навчальний заклад» Дніпропетровської міської ради","загальноосвітній навчальний заклад - дошкільний навчальний заклад","64",360,"526","м. Дніпропетровськ, вул. Кожедуба, 49,","753 41 84",NA,NA,35.1947646,48.4840945,"48.4840945:35.1947646"
"318","Дніпро","ЗНЗ","Комунальний заклад освіти «Навчально-виховний комплекс № 125 «Загальноосвітній навчальний заклад-дошкільний навчальний заклад» Дніпропетровської міської ради","загальноосвітній навчальний заклад І-ІІ ступенів - дошкільний навчальний заклад","26",400,"148","м. Дніпропетровськ, вул. Аграрна, 3","726 26 39",NA,NA,35.1520095,48.4931675,"48.4931675:35.1520095"
"319","Дніпро","ЗНЗ","Комунальний заклад освіти «Неповна середня загальноосвітня школа № 127» Дніпропетровської міської ради","середня загальноосвітня школа І-ІІ ступенів","28",160,"308","м. Дніпропетровськ, вул. Календарна, 20А","753 45 60",NA,NA,35.2061306,48.4674811,"48.4674811:35.2061306"
"320","Дніпро","ЗНЗ","Комунальний заклад освіти «Спеціалізована школа № 129 фізико-математичного профілю» Дніпропетровської міської ради","спеціалізована школа","76",1176,"904","м. Дніпропетровськ, вул. Космонавтів, 12","728 33 69",NA,NA,35.129167,48.4135775,"48.4135775:35.129167"
"321","Дніпро","ЗНЗ","Комунальний заклад освіти «Вечірня (змінна) середня загальноосвітня школа № 4» Дніпропетровської міської ради","загальноосвітній навчальний заклад ІІ-ІІІ ступенів","11",NA,"146","49112 м. Дніпропетровськ, вул. Космонавта Волкова, 6","728-16-62",NA,NA,35.1272866,48.4020102,"48.4020102:35.1272866"
"322","Дніпро","ЗНЗ","Комунальний заклад освіти «Середня загальноосвітня школа № 10 імені І.І. Манжури» Дніпропетровської міської ради","середня загальноосвітня школа І-ІІІ ступенів","36",700,"380","м. Дніпропетровськ, вул. Бригадна, 10","46 63 91",NA,NA,35.0625991,48.4499985,"48.4499985:35.0625991"
"323","Дніпро","ЗНЗ","Комунальний заклад освіти «Середня загальноосвітня школа № 20» Дніпропетровської міської ради","середня загальноосвітня школа І-ІІІ ступенів","34",700,"350","м. Дніпропетровськ, вул.Високовольтна,30","776 59 36",NA,NA,35.0264791,48.4230266,"48.4230266:35.0264791"
"324","Дніпро","ЗНЗ","Комунальний заклад освіти «Спеціалізована багатопрофільна школа № 23 з поглибленим вивченням англійської мови» Дніпропетровської міської ради","спеціалізована багатопрофільна школа","79",840,"1062","м. Дніпропетровськ, пр. Дмитра Яворницького, 14","46 04 45",NA,NA,35.0506736,48.462363,"48.462363:35.0506736"
"325","Дніпро","ЗНЗ","Комунальний заклад освіти «Середня загальноосвітня школа № 35» Дніпропетровської міської ради","середня загальноосвітня школа І-ІІІ ступенів","62",1600,"857","м. Дніпропетровськ, вул. Набережна Перемоги, 132","68 10 22",NA,NA,35.073881,48.4126279,"48.4126279:35.073881"
"326","Дніпро","ЗНЗ","Комунальний заклад освіти «Навчально-виховний комплекс № 66 «Гімназія -початкова школа-дошкільний навчальний заклад» Дніпропетровської міської ради","гімназія - початкова школа - дошкільний навчальний заклад","56",1280,"710","м. Дніпропетровськ, вул. Гетьмана П.Дорошенка, 3","68 45 88",NA,NA,35.0651105,48.417539,"48.417539:35.0651105"
"327","Дніпро","ЗНЗ","Комунальний заклад освіти «Спеціалізована школа № 67 еколого-економічного профілю» Дніпропетровської міської ради","спеціалізована школа","73",850,"986","м. Дніпропетровськ, пров. Урицького, 6","744 42 40",NA,NA,35.0633864,48.4595865,"48.4595865:35.0633864"
"328","Дніпро","ЗНЗ","Комунальний заклад освіти «Спеціалізована школа № 71 художньо-архітектурного напрямку» Дніпропетровської міської ради","спеціалізована школа","30",750,"374","м. Дніпропетровськ, вул.Жуковського,10","46 02 51",NA,NA,35.0528526,48.4522605,"48.4522605:35.0528526"
"329","Дніпро","ЗНЗ","Комунальний заклад освіти «Середня загальноосвітня школа № 73» Дніпропетровської міської ради","середня загальноосвітня школа І-ІІІ ступенів","48",1320,"670","м. Дніпропетровськвул.Гетьмана П.Дорошенка, 5","68 05 00",NA,NA,35.0653338,48.4167086,"48.4167086:35.0653338"
"330","Дніпро","ЗНЗ","Комунальний заклад освіти «Середня загальноосвітня школа № 76» Дніпропетровської міської ради","середня загальноосвітня школа І-ІІІ ступенів","40",700,"455","м. Дніпропетровськ, вул. Набережна Перемоги, 46 б","753 59 74",NA,NA,35.068445,48.438436,"48.438436:35.068445"
"331","Дніпро","ЗНЗ","Комунальний заклад освіти «Навчально-виховне об’єднання технічного профілю № 79 «Загальноосвітній навчальний заклад-дошкільний навчальний заклад-позашкільний навчальний заклад» Дніпропетровської міської ради","загальноосвітній навчальний заклад - дошкільний навчальний заклад - позашкільний навчальний заклад","28",500,"344","м. Дніпропетровськ, вул. Академіка Лазаряна, буд.7-а","46 34 15",NA,NA,NA,NA,"NA:NA"
"332","Дніпро","ЗНЗ","Комунальний заклад освіти «Середня загальноосвітня школа № 83» Дніпропетровської міської ради","середня загальноосвітня школа І-ІІІ ступенів","55",1560,"719","м. Дніпропетровськ, вул. Недєліна, 1","378  83 71",NA,NA,35.0492055,48.4098485,"48.4098485:35.0492055"
"333","Дніпро","ЗНЗ","Комунальний заклад освіти «Навчально-виховний комплекс №100 «Загальноосвітній навчальний заклад І-ІІ ступенів – ліцей» Дніпропетровської міської ради","ліцей - загальноосвітній навчальний заклад І-ІІ ступенів","86",440,"879","м. Дніпропетровськ, пл. Успенська, 1","370 97 93",NA,NA,35.0521974,48.4646545,"48.4646545:35.0521974"
"334","Дніпро","ЗНЗ","Комунальний заклад освіти «Середня загальноосвітня школа № 107» Дніпропетровської міської ради","середня загальноосвітня школа І-ІІІ ступенів","30",964,"398","м. Дніпропетровськ, вул. Холмогорська, 7а","68 49 55",NA,NA,35.0657435,48.406814,"48.406814:35.0657435"
"335","Дніпро","ЗНЗ","Комунальний заклад освіти «Навчально-виховний комплекс №111 «Спеціалізована школа-дошкільний навчальний заклад» Дніпропетровської міської ради","спеціалізована школа - дошкільний навчальний заклад","35",900,"826","м. Дніпропетровськ, пр. Героїв, 29","68 10 00",NA,NA,35.0712183,48.4119663,"48.4119663:35.0712183"
"336","Дніпро","ЗНЗ","Комунальний заклад освіти «Ннавчально-виховний комплекс № 130 «Загальноосвітній навчальний заклад І ступеня-гімназія» Дніпропетровської міської ради","гімназія - загальноосвітній навчальний заклад I ступеня","63",1400,"993","м. Дніпропетровськ, пр. Героїв, 38","788-45-83",NA,NA,35.0694553,48.4077865,"48.4077865:35.0694553"
"337","Дніпро","ЗНЗ","Комунальний заклад освіти «Середня загальноосвітня школа № 140» Дніпропетровської міської ради","середня загальноосвітня школа І-ІІІ ступенів","47",1200,"590","м. Дніпропетровськ, вул. Мандриківська, 151","46 63 91",NA,NA,35.062709,48.4287201,"48.4287201:35.062709"
"338","Дніпро","ЗНЗ","Комунальний заклад освіти «Міська середня загальноосвітня заочна школа» Дніпропетровської міської ради","загальноосвітній навчальний заклад ІІ-ІІІ ступенів","8",NA,"85","м. Дніпропетровськ вул Мандриківська, 48","46-45-39",NA,NA,35.0683245,48.44445,"48.44445:35.0683245"
"339","Дніпро","ЗНЗ","Комунальний заклад освіти «Середня загальноосвітня школа № 1» Дніпропетровської міської ради","середня загальноосвітня школа І-ІІІ ступенів","60",700,"873","м. Дніпропетровськ, вул. Привокзальна, 15",". 770 85 18",NA,NA,34.7977214,48.4396604,"48.4396604:34.7977214"
"340","Дніпро","ЗНЗ","Комунальний заклад освіти «Середня загальноосвітня школа № 2» Дніпропетровської міської ради","середня загальноосвітня школа І-ІІІ ступенів","46",650,"600","м. Дніпропетровськ, вул. Савченка, 1","42 58 94",NA,NA,35.0258025,48.4673874,"48.4673874:35.0258025"
"341","Дніпро","ЗНЗ","Комунальний заклад освіти «Середня загальноосвітня школа № 9 з поглибленим вивченням англійської мови» Дніпропетровської міської ради","спеціалізована школа","55",450,"635","м. Дніпропетровськ, вул. Мостова, 3","744 21 74,                  778 37 45",NA,NA,35.0273186,48.474605,"48.474605:35.0273186"
"342","Дніпро","ЗНЗ","Комунальний заклад освіти «Спеціалізована школа № 13» Дніпропетровської міської ради","спеціалізована школа","39",1200,"563","м. Дніпропетровськ, вул. Драгоманова, 50","749 65 54",NA,NA,35.0280205,48.4549271,"48.4549271:35.0280205"
"343","Дніпро","ЗНЗ","Комунальний заклад освіти «Середня загальноосвітня школа № 16» Дніпропетровської міської ради","середня загальноосвітня школа І-ІІІ ступенів","31",960,"260","м. Дніпропетровськ, пр.Б. Хмельницького, 14 Б","749 60 92",NA,NA,35.0216285,48.4439005,"48.4439005:35.0216285"
"344","Дніпро","ЗНЗ","Комунальний заклад освіти «Спеціалізована середня загально-освітня школа № 22 з поглибленим вивченням іноземної мови» Дніпропетровської міської ради","спеціалізована школа","68",1176,"913","м. Дніпропетровськ, вул. Нахімова, 57","749-63-35",NA,NA,35.0133849,48.4411845,"48.4411845:35.0133849"
"345","Дніпро","ЗНЗ","Комунальний заклад освіти «Середня загальноосвітня школа № 37» Дніпропетровської міської ради","середня загальноосвітня школа І-ІІІ ступенів","39",1020,"531","м. Дніпропетровськ, пр. Богдана Хмельницького, 8 Г","749 67 29",NA,NA,35.0233416,48.44638,"48.44638:35.0233416"
"346","Дніпро","ЗНЗ","Комунальний заклад освіти «Середня загальноосвітня школа № 58» Дніпропетровської міської ради","середня загальноосвітня школа І-ІІІ ступенів","32",580,"389","м.Дніпропетровськ, вул. В.Чапленка, 1","42 60 74",NA,NA,35.022237,48.4748679,"48.4748679:35.022237"
"347","Дніпро","ЗНЗ","Комунальний заклад освіти «Середня загальноосвітня школа № 75» Дніпропетровської міської ради","середня загальноосвітня школа І-ІІІ ступенів","44",720,"671","м.Дніпропетровськ, вул. Гавриленка, 8 А","749 63 20",NA,NA,35.0133455,48.4395,"48.4395:35.0133455"
"348","Дніпро","ЗНЗ","Комунальний заклад освіти «середня загальноосвітня школа №128» Дніпропетровської міської ради","середня загальноосвітня школа І-ІІІ ступенів","44",650,"513","м.Дніпропетровськ, вул.Гавриленка, 4","749 68 23",NA,NA,35.017451,48.438322,"48.438322:35.017451"
"349","Дніпро","ЗНЗ","Комунальний заклад освіти «Навчально-виховний комплекс № 148 «Спеціалізована школа-дошкільний навчальний заклад (ясла-садок ) «Планета Щастя» Дніпропетровської міської ради","спеціалізована школа - дошкільний навчальний заклад","150",1200,"967","м. Дніпропетровськ, вул.Антоновича, 13","745 30 85",NA,NA,35.0296779,48.46202,"48.46202:35.0296779"
"350","Дніпро","ЗНЗ","Комунальний заклад освіти «Середня загальноосвітня школа № 6» Дніпропетровської міської ради","середня загальноосвітня школа І-ІІІ ступенів","41",700,"643","м. Дніпропетровськ, вул. Робоча, 64","42 36 28",NA,NA,35.0055979,48.4588485,"48.4588485:35.0055979"
"351","Дніпро","ЗНЗ","Комунальний заклад освіти ”Навчально – виховний комплекс №12 ""загальноосвітній навчальний заклад І ступеня - гімназія” Дніпропетровської міської ради","гімназія - загальноосвітній навчальний заклад I ступеня","52",600,"700","м. Дніпропетровськ, пр. Пушкіна, 75","42 34 16",NA,NA,35.012508,48.467708,"48.467708:35.012508"
"352","Дніпро","ЗНЗ","Комунальний заклад освіти «Середня загальноосвітня школа № 15» Дніпропетровської міської ради","середня загальноосвітня школа І-ІІІ ступенів","40",850,"675","м. Дніпропетровськ, вул. Кедріна, 53","39 68 46",NA,NA,35.003017,48.4441906,"48.4441906:35.003017"
"353","Дніпро","ЗНЗ","Комунальний навчальний заклад «Навчально-виховний комплекс № 30» Дніпропетровської міської ради","загальноосвітній навчальний заклад - дошкільний навчальний заклад","19",940,"164","м. Дніпропетровськ, вул. Крамського, 6","39 40 41",NA,NA,34.9871879,48.4465575,"48.4465575:34.9871879"
"354","Дніпро","ЗНЗ","Комунальний заклад освіти «Середня загальноосвітня школа № 31» Дніпропетровської міської ради","середня загальноосвітня школа І-ІІІ ступенів","50",1320,"955","м. Дніпропетровськ, вул. Фабрично-заводська, 22","792 08 20",NA,NA,35.0086856,48.426077,"48.426077:35.0086856"
"355","Дніпро","ЗНЗ","Комунальний заклад освіти «Середня загальноосвітня школа № 32» Дніпропетровської міської ради","середня загальноосвітня школа І-ІІІ ступенів","21",514,"223","м. Дніпропетровськ, вул. Антоновича, 72","42 37 24",NA,NA,35.008926,48.4678685,"48.4678685:35.008926"
"356","Дніпро","ЗНЗ","Комунальний заклад освіти «Середня загальноосвітня школа № 34» Дніпропетровської міської ради","середня загальноосвітня школа І-ІІІ ступенів","48",800,"727","м. Дніпропетровськ, вул. Кедріна, 57","39 69 95",NA,NA,35.0003714,48.4392754,"48.4392754:35.0003714"
"357","Дніпро","ЗНЗ","Комунальний заклад освіти «Середня загальноосвітня школа № 46» Дніпропетровської міської ради","середня загальноосвітня школа І-ІІІ ступенів","46",1176,"879","м. Дніпропетровськ, вул. Робоча, 75 А","38 63 67",NA,NA,35.0041806,48.4496666,"48.4496666:35.0041806"
"358","Дніпро","ЗНЗ","Комунальний заклад освіти «Навчально-виховний комплекс № 51» Дніпропетровської міської ради","середня загальноосвітня школа І-ІІІ ступенів","36",880,"448","м. Дніпропетровськ, вул. Алтайська, 4","760 61 55",NA,NA,35.0032455,48.4543585,"48.4543585:35.0032455"
"359","Дніпро","ЗНЗ","Комунальний заклад освіти «Середня загальноосвітня школа № 62» Дніпропетровської міської ради","середня загальноосвітня школа І-ІІІ ступенів","52",840,"691","м. Дніпропетровськ, вул. Будівельників, 26","792 25 15",NA,NA,35.0021558,48.4256507,"48.4256507:35.0021558"
"360","Дніпро","ЗНЗ","Комунальний заклад освіти «Середня загальноосвітня школа № 65» Дніпропетровської міської ради","середня загальноосвітня школа І-ІІІ ступенів","21",450,"195","м. Дніпропетровськ, вул. Амбулаторна, 2","760 61 47",NA,NA,34.9867704,48.4556845,"48.4556845:34.9867704"
"361","Дніпро","ЗНЗ","Комунальний заклад освіти «Середня загальноосвітня школа № 82» Дніпропетровської міської ради","середня загальноосвітня школа І-ІІІ ступенів","22",300,"274","м. Дніпропетровськ, вул. Філософська, 56","42 35 77",NA,NA,35.0157045,48.4639891,"48.4639891:35.0157045"
"362","Дніпро","ЗНЗ","Комунальний заклад освіти «Середня загальноосвітня школа № 89» Дніпропетровської міської ради","середня загальноосвітня школа І-ІІІ ступенів","30",1200,"434","м. Дніпропетровськ, вул. Титова, 4","792 07 17",NA,NA,35.0126835,48.430168,"48.430168:35.0126835"
"363","Дніпро","ЗНЗ","Комунальний заклад освіти «Середня загальноосвітня школа № 101» Дніпропетровської міської ради","середня загальноосвітня школа І-ІІІ ступенів","39",1176,"599","м. Дніпропетровськ, вул.Високогірна, 29Д","753 15 98",NA,NA,34.951755,48.406913,"48.406913:34.951755"
"364","Дніпро","ЗНЗ","Комунальний заклад освіти «Навчально-виховний комплекс № 102» Дніпропетровської міської ради","загальноосвітній навчальний заклад - дошкільний навчальний заклад","37",650,"329","м. Дніпропетровськ, вул. Дзеркальна, 42А","753 22 95",NA,NA,34.918058,48.4091085,"48.4091085:34.918058"
"365","Дніпро","ЗНЗ","Комунальний заклад освіти «Середня загальноосвітня школа № 120» Дніпропетровської міської ради","середня загальноосвітня школа І-ІІІ ступенів","23",964,"464","м. Дніпропетровськ, вул. Янгеля, 2","792 30 27",NA,NA,35.005836,48.4299241,"48.4299241:35.005836"
"366","Дніпро","ЗНЗ","Комунальний заклад освіти «Вечірня (змінна) середня загальноосвітня шкода № 8»","загальноосвітній навчальний заклад ІІ-ІІІ ступенів","13",NA,"159","м. Дніпропетровськ вул. Будівельників, 39","790 14 87",NA,NA,34.9942376,48.426315,"48.426315:34.9942376"
"367","Дніпро","ЗНЗ","Комунальний заклад освіти «Середня загальноосвітня школа № 19» Дніпропетровської міської ради","середня загальноосвітня школа І-ІІІ ступенів","39",920,"548","м.Дніпропетровськ, вул. Князя Володимира Великого, 13 А","745 25 53",NA,NA,35.0417884,48.4692239,"48.4692239:35.0417884"
"368","Дніпро","ЗНЗ","Комунальний заклад освіти «Середня загальноосвітня школа № 21» Дніпропетровської міської ради","середня загальноосвітня школа І-ІІІ ступенів","41",378,"693","м. Дніпропетровськ, вул. Старокозацька, 51 А","745 45 39",NA,NA,35.0333379,48.4667675,"48.4667675:35.0333379"
"369","Дніпро","ЗНЗ","Комунальний заклад освіти «Середня загальноосвітня школа № 25» Дніпропетровської міської ради","середня загальноосвітня школа І-ІІІ ступенів","32",650,"522","м. Дніпропетровськ, вул. Бориса Кротова, 19","791 23 65",NA,NA,34.9807294,48.398046,"48.398046:34.9807294"
"370","Дніпро","ЗНЗ","Комунальний заклад освіти «Навчально-виховний комплекс № 33 «Маріїнська багато профільна гімназія – загальноосвітній навчальний заклад І ступеня» Дніпропетровської міської ради","гімназія - загальноосвітній навчальний заклад I ступеня","38",800,"585","м. Дніпропетровськ, вул. Троїцька, 1","744 16 82",NA,NA,35.0422772,48.4614979,"48.4614979:35.0422772"
"371","Дніпро","ЗНЗ","Комунальний заклад освіти «Середня загальноосвітня школа № 40» Дніпропетровської міської ради","середня загальноосвітня школа І-ІІІ ступенів","47",960,"704","м. Дніпропетровськ, вул. Альвінського, 3","378 63 40",NA,NA,34.9938743,48.3819366,"48.3819366:34.9938743"
"372","Дніпро","ЗНЗ","Комунальний заклад освіти «Середня загальноосвітня школа № 48» Дніпропетровської міської ради","середня загальноосвітня школа І-ІІІ ступенів","22",240,"147","м. Дніпропетровськ, вул. Олександра Кониського, буд. 79","745 54 47",NA,NA,35.0353329,48.4481769,"48.4481769:35.0353329"
"373","Дніпро","ЗНЗ","Комунальний заклад освіти «Середня загальноосвітня школа № 49» Дніпропетровської міської ради","середня загальноосвітня школа І-ІІІ ступенів","42",878,"581","м. Дніпропетровськ, вул. Одоєвського, буд. 16","776 58 89",NA,NA,35.0336795,48.4300855,"48.4300855:35.0336795"
"374","Дніпро","ЗНЗ","Комунальний заклад освіти «Середня загальноосвітня школа № 52» Дніпропетровської міської ради","середня загальноосвітня школа І-ІІІ ступенів","49",1176,"714","м. Дніпропетровськ, вул. Мукаша Салакунова, 11","765 01 21",NA,NA,35.0281866,48.402797,"48.402797:35.0281866"
"375","Дніпро","ЗНЗ","Комунальний заклад освіти «Спеціалізована середня загальноосвітня школа № 53 з поглибленим вивченням німецької мови» Дніпропетровської міської ради","спеціалізована школа","51",825,"594","м. Дніпропетровськ, вул. Тополина, 35","765 28 85",NA,NA,35.0214345,48.391855,"48.391855:35.0214345"
"376","Дніпро","ЗНЗ","Комунальний заклад освіти ""Навчально-виховний комплекс №61 ""Техніко-економічний ліцей - загальний навчальний заклад І-ІІ ступенів"" Дніпропетровської міської ради","ліцей - загальноосвітній навчальний заклад І-ІІ ступенів","44",850,"941","м. Дніпропетровськ, вул. Єрмолової, 50","763 60 87",NA,NA,35.004236,48.409332,"48.409332:35.004236"
"377","Дніпро","ЗНЗ","Комунальний заклад освіти «Середня загальноосвітня школа № 78» Дніпропетровської міської ради","середня загальноосвітня школа І-ІІІ ступенів","51",1560,"585","м. Дніпропетровськ, вул. Тополина, 37","765 29 87",NA,NA,35.020639,48.392862,"48.392862:35.020639"
"378","Дніпро","ЗНЗ","Комунальний заклад освіти «Середня загальноосвітня школа № 80» Дніпропетровської міської ради","середня загальноосвітня школа І-ІІІ ступенів","46",1200,"570","м. Дніпропетровськ, вул. Комбрига Петрова, 31","765 99 90",NA,NA,35.033541,48.3971917,"48.3971917:35.033541"
"379","Дніпро","ЗНЗ","Комунальний заклад освіти «Середня загальноосвітня школа № 81» Дніпропетровської міської ради","середня загальноосвітня школа І-ІІІ ступенів","31",560,"397","м. Дніпропетровськ, вул. Юліуша Словацького, 4","744 79 84",NA,NA,35.0396555,48.4697374,"48.4697374:35.0396555"
"380","Дніпро","ЗНЗ","Комунальний заклад освіти «Навчально-виховний комплекс № 99 "" багатопрофільна гімназія- загальноосвітній навчальний заклад I ступеня "" Дніпропетровської міської ради","гімназія - загальноосвітній навчальний заклад I ступеня","65",1000,"1119","м. Дніпропетровськ, вул. Комбрига Петрова, 17","765 95 93",NA,NA,35.033541,48.3971917,"48.3971917:35.033541"
"381","Дніпро","ЗНЗ","Комунальний заклад освіти «Середня загальноосвітня школа № 112» Дніпропетровської міської ради","середня загальноосвітня школа І-ІІІ ступенів","56",1200,"898","м. Дніпропетровськ, вул. Солідарна, 4","763 30 98",NA,NA,35.0109535,48.408283,"48.408283:35.0109535"
"382","Дніпро","ЗНЗ","Комунальний заклад освіти «Середня загальноосвітня школа № 119» Дніпропетровської міської ради","середня загальноосвітня школа І-ІІІ ступенів","22",504,"323","м. Дніпропетровськ, вул. Козака Мамая, 17 А","763 06 56",NA,NA,35.0116784,48.405622,"48.405622:35.0116784"
"383","Дніпро","ЗНЗ","Комунальний заклад освіти «Спеціалізована середня загально-освітня школа № 126» Дніпропетровської міської ради","спеціалізована школа","60",906,"906","м. Дніпропетровськ, вул. Казакевича, 7","763 08 15",NA,NA,35.0075889,48.404899,"48.404899:35.0075889"
"384","Дніпро","ЗНЗ","Комунальний заклад освіти «Навчально-виховний комплекс №137» Дніпропетровської міської ради","середня загальноосвітня школа І-ІІІ ступенів","80",1568,"1157","м. Дніпропетровськ, вул. Комбрига Петрова, 29","765 48 10",NA,NA,35.033541,48.3971917,"48.3971917:35.033541"
"385","Дніпро","ЗНЗ","Комунальний заклад освіти «Вечірня середня загальноосвітня школа № 31» Дніпропетровської міської ради","загальноосвітній навчальний заклад ІІ-ІІІ ступенів","9",NA,"217","м. Дніпропетровськ вул. Г. Сталінграду, 37","792-68-06",NA,NA,35.0127087,48.4254121,"48.4254121:35.0127087"
"386","Дніпро","ЗНЗ","Комунальний заклад освіти «Дніпропетровський ліцей інформаційних технологій при Дніпропетровському національному університеті імені Олеся Гончара»","ліцей","47",450,"450","м.Дніпропетровськ, вул. Шевченка,8","745 41 75",NA,NA,35.0561289,48.457439,"48.457439:35.0561289"
"387","Дніпро","ЗНЗ","Комунальний заклад освіти «Ліцей з посиленою військово-фізичною підготовкою» Дніпропетровської міської ради","ліцей","40",450,"308","м.Дніпропетровськ, ж/м Сокіл-2, вул. Космодромна, 7","378 85 57",NA,NA,NA,NA,"NA:NA"
"388","Дніпро","ЗНЗ","Комунальний заклад освіти «Хіміко-екологічний ліцей» Дніпропетровської міської ради","ліцей","25",128,"146","м.Дніпропетровськ, пр.Богдана Хмельницького, 14 Б","788 41 74",NA,NA,35.0216285,48.4439005,"48.4439005:35.0216285"
"389","Дніпро","ЗНЗ","Комунальний заклад освіти «Українсько-Американський ліцей» Дніпропетровської міської ради","ліцей","21",215,"237","м.Дніпропетровськ, пр.Дмитра Яворницького, 19",". 377 27 21",NA,NA,35.062241,48.455404,"48.455404:35.062241"
"390","Дніпро","ЗНЗ","Комунальний заклад освіти «Міський юридичний ліцей» Дніпропетровської міської ради","ліцей","26",210,"205","м. Дніпропетровськ, вул. Наб.Заводська, 119 Д","372 86 85",NA,NA,34.9162492,48.4846641,"48.4846641:34.9162492"
"391","Дніпро","ЗНЗ","Комунальний заклад освіти «Навчально-виховне об҆ꞌєднання № 28 «гімназія-школа І ступеня-дошкільний навчальний заклад (ясла-садок)-центр позашкільної роботи» Дніпропетровської міської ради","гімназія - школа І ступеня - дошкільний навчальний заклад - центр позашкільної роботи","110",1060,"1064","м.Дніпропетровськ, вул. В. Дубініна,12",".776 84 18",NA,NA,35.041166,48.4277895,"48.4277895:35.041166"
"392","Дніпро","ЗНЗ","Комунальний заклад освіти «Навчально-виховний комплекс № 104 «Середня загальноосвітня школа – дошкільний навчальний заклад (дитячий садок)» Дніпропетровської міської ради","середня загальноосвітня школа – дошкільний навчальний заклад","19",280,"111","м. Дніпропетровськ, вул. Ясенова, 65",".749 44 85",NA,NA,34.71316,48.4838246,"48.4838246:34.71316"
"393","Дніпро","ЗНЗ","Комунальний заклад освіти «Середня загальноосвітня школа № 105» Дніпропетровської міської ради","загальноосвітній навчальний заклад І-ІІІ ступенів","25",250,"265","м. Дніпропетровськ, вул. Золотоосіння, 26","749 48 10",NA,NA,34.7731891,48.4470955,"48.4470955:34.7731891"
"394","Дніпро","ЗНЗ","Комунальний заклад освіти «Середня загальноосвітня школа № 123» Дніпропетровської міської ради","загальноосвітній навчальний заклад І-ІІІ ступенів","43",400,"549","м.Дніпропетровськ, вул.Ак.Кисловського,1,","749 50 42",NA,NA,NA,NA,"NA:NA"
"395","Дніпро","ЗНЗ","Комунальний заклад освіти «Середня загальноосвітня школа № 124» Дніпропетровської міської ради","загальноосвітній навчальний заклад І-ІІІ ступенів","31",390,"537","м. Дніпропетровськ, вул. Старий шлях, 2","749 41 51",NA,NA,34.795854,48.442062,"48.442062:34.795854"
"396","Дніпро","ЗНЗ","Комунальний заклад освіти «Навчально-виховне об’єднання № 136 «класична гімназія ім. Кирила і Мефодія-початкова школа-дошкільний навчальний заклад-валеологічний центр» Дніпропетровської міської ради","гімназія - початкова школа - дошкільний навчальний заклад - валеологічний центр","65",1076,"857","м. Дніпропетровськ, вул. Космонавтів, 10","728 21 04",NA,NA,35.130026,48.414361,"48.414361:35.130026"
"397","Дніпро","ЗНЗ","Комунальний заклад освіти «Дніпропетровська міська спеціалізована школа № 144 з поглибленим вивченням івриту, історії єврейського народу, єврейських традицій» Дніпропетровської міської ради","спеціалізована школа","49",550,"433","м.Дніпропетровськ, вул. Мініна,1","32 27 17",NA,NA,35.030927,48.458852,"48.458852:35.030927"
"398","Дніпро","ЗНЗ","Комунальний заклад освіти «Навчально-виховний комплекс «Дніпропетровська вальдорфська середня загальноосвітня школа І-ІІІ ступенів-дитячий садок» Дніпропетровської міської ради","середня загальноосвітня школа І-ІІІ ступенів - дитячий садок","46",350,"346","м. Дніпропетровск, пр. О.Поля, 133","749 62 35",NA,NA,35.0140171,48.4348635,"48.4348635:35.0140171"
"399","Дніпро","ЗНЗ","Комунальний заклад освіти «Міська спеціальна вечірня (змінна) середня загальноосвітня школа №22 для глухих та слабочуючих» Дніпропетровської міської ради","загальноосвітній навчальний заклад ІІ-ІІІ ступенів","12",NA,"84","49000, м.Дніпропетровськ, вул.Сєрова, 16","742-80-65",NA,NA,35.0349746,48.4663995,"48.4663995:35.0349746"
"400","Дніпро","ЗНЗ","Комунальний заклад освіти “Неповна середня загальноосвітня школа-інтернат №2” Дніпропетровської міської ради","загальноосвітня школа І-ІІ ступенів - інтернат","24",280,"212","м.Дніпропетровськ, вул. Каверіна, 5","39-42-62",NA,NA,34.9983785,48.4475855,"48.4475855:34.9983785"
